{"title":"La Table de la Ferme","address":"Vallée de l'Ortolo","postCode":"20100"}
{"title":"Girardin","address":"19 Rue des Têtes","postCode":"68000"}
{"title":"Le Meurice Alain Ducasse","address":"228 Rue de Rivoli","postCode":"75001"}
{"title":"Le Georges","address":"22 pl. des Épars","postCode":"28000"}
{"title":"Le Foch","address":"37 bd Foch","postCode":"51100"}
{"title":"Brikéténia","address":"142 r. de l'Église","postCode":"64210"}
{"title":"La Coquerie","address":"1 chemin du Cimetière-Marin","postCode":"34200"}
{"title":"Maison Decoret","address":"15 rue du Parc","postCode":"03200"}
{"title":"La Marande","address":"lieu-dit Mirande","postCode":"71260"}
{"title":"Le Farçon","address":"immeuble la Kalinka","postCode":"73125"}
{"title":"Auberge du Vert Mont","address":"1318 r. du Mont-Noir","postCode":"59299"}
{"title":"Lamartine","address":"Route du Tunnel du Chat","postCode":"73370"}
{"title":"La Gloire","address":"74 av. du Gén.-de-Gaulle","postCode":"45200"}
{"title":"L'Essentiel","address":"8 r. de la Clarté","postCode":"24000"}
{"title":"Le Favre d'Anne","address":"21 bd du Mar.-Foch","postCode":"49000"}
{"title":"Auberge du Cheval Blanc","address":"4 Route de Wissembourg","postCode":"67510"}
{"title":"La Table d'Eugène","address":"18 r. Eugène-Sue","postCode":"75018"}
{"title":"Jean Sulpice","address":"303 rte du Port","postCode":"74290"}
{"title":"Le St-Placide","address":"6 place du poncel","postCode":"35400"}
{"title":"Auberge St-Jean","address":"8 r. du Pont","postCode":"33420"}
{"title":"Le Figuier de St-Esprit","address":"7, Promenade Amiral de Grasse","postCode":"06600"}
{"title":"Miraflores","address":"60 r. Garibaldi","postCode":"69006"}
{"title":"Jérôme Brochot","address":"Place Beaubernard","postCode":"71300"}
{"title":"Le Park 45","address":"45 bd de la Croisette","postCode":"06400"}
{"title":"Le Vivarais","address":"5 avenue Expilly","postCode":"07600"}
{"title":"Le Bon Accueil","address":"32 Grande-Rue","postCode":"25160"}
{"title":"Auberge du Dun","address":"3 rte de Dieppe","postCode":"76740"}
{"title":"L'Impertinent","address":"5, rue d'Alsace","postCode":"64200"}
{"title":"Radio","address":"43 av. P. et M.-Curie","postCode":"63400"}
{"title":"Le Roc Alto","address":"Quartier La Ville","postCode":"05350"}
{"title":"Auberge de la Tour","address":"Place de la Fontaine","postCode":"15220"}
{"title":"Le Patio","address":"10 bd de la Plage","postCode":"33120"}
{"title":"La Passagère","address":"33 boulevard E. -Baudoin","postCode":"06160"}
{"title":"Quinsou","address":"33 r. de l'Abbé-Grégoire","postCode":"75006"}
{"title":"Le Camélia","address":"7 quai Georges Clemenceau","postCode":"78380"}
{"title":"Le Puits du Trésor","address":"21 rte des Quatre-Châteaux","postCode":"11600"}
{"title":"Maison Jeunet","address":"9 r. de l'Hôtel-de-Ville","postCode":"39600"}
{"title":"Auberge de la Mine","address":"le Gué-Plat","postCode":"61450"}
{"title":"Aux Terrasses","address":"18 av. du 23-Janvier","postCode":"71700"}
{"title":"Le Carré d'Alethius","address":"4 r. Paul-Bertois","postCode":"07800"}
{"title":"Auberge de l'Ill","address":"2 rue de Collonges-au-Mont d'Or","postCode":"68970"}
{"title":"Le Domaine de la Corniche","address":"5 rte de la Corniche","postCode":"78270"}
{"title":"La Table des Merville","address":"3 place Richard","postCode":"31320"}
{"title":"Domaine des Hauts de Loire","address":"79 rue Gilbert Navard","postCode":"41150"}
{"title":"L'Ambroisie","address":"9 Place des Vosges","postCode":"75004"}
{"title":"Pic","address":"285 avenue Victor Hugo","postCode":"26000"}
{"title":"Kasbür","address":"8 Rue de Dettwiller","postCode":"67700"}
{"title":"L'Arnsbourg","address":"Untermuhlthal","postCode":"57230"}
{"title":"L'Atelier de Jean-Luc Rabanel","address":"7 r. des Carmes","postCode":"13200"}
{"title":"Alliance","address":"5 Rue de Poissy","postCode":"75005"}
{"title":"Hostellerie de Plaisance","address":"5 place du Clocher","postCode":"33330"}
{"title":"L'Arcane","address":"39 Rue Lamarck","postCode":"75018"}
{"title":"Le Strasbourg","address":"24 r. du Col. -Teyssier","postCode":"57230"}
{"title":"Maison Kieny","address":"7 Rue du Général de Gaulle","postCode":"68400"}
{"title":"Le Cerisier","address":"3 rue de la Gare","postCode":"62840"}
{"title":"Les Terrasses de Lyon","address":"25, montée Saint BArthelémy","postCode":"69005"}
{"title":"Le Castellaras","address":"461 chemin Peymeyan","postCode":"83440"}
{"title":"Helen","address":"3 r.Berryer","postCode":"75008"}
{"title":"La Maison d'à Côté","address":"17 rue de Chambord","postCode":"41350"}
{"title":"La Rastègue","address":"48 bd du Levant","postCode":"83230"}
{"title":"1131","address":"D 33","postCode":"21360"}
{"title":"Domaine des Séquoias","address":"54 Vie-de-Boussieu","postCode":"38300"}
{"title":"La Côte Saint-Jacques","address":"14 faubourg de Paris","postCode":"89300"}
{"title":"Michel Chabran - La Grande Table","address":"29 Avenue du Quarante-Cinquième Parallèle","postCode":"26600"}
{"title":"La Nouvelle Auberge","address":"9 route Nationale","postCode":"68230"}
{"title":"Lasserre","address":"17 Avenue F. -D. -Roosevelt","postCode":"75008"}
{"title":"Auberge Frankenbourg","address":"13 r. Gén. de Gaulle","postCode":"67730"}
{"title":"L'Escarbille","address":"8 Rue de Vélizy","postCode":"92190"}
{"title":"Hervé Busset","address":"D901","postCode":"12320"}
{"title":"La Promenade","address":"11 rue du Savoureulx","postCode":"37350"}
{"title":"Il Cortile","address":"11 r. des Franciscains","postCode":"68100"}
{"title":"Auguste","address":"54 r. Bourgogne","postCode":"75007"}
{"title":"Le Manoir du Lys","address":"D235","postCode":"61140"}
{"title":"JY'S","address":"17 r. de la Poissonnerie","postCode":"68000"}
{"title":"Le Bois sans Feuilles","address":"728 Route de Villerest","postCode":"42155"}
{"title":"Aigue Marine","address":"5 r. M. -Berthelot","postCode":"22220"}
{"title":"Le Jardin des Remparts","address":"10 rue Hôtel-Dieu","postCode":"21200"}
{"title":"Flocons de Sel","address":"1775 rte du Leutaz","postCode":"74120"}
{"title":"Le Saison","address":"1 imp. du Vieux-Bourg","postCode":"35760"}
{"title":"Le Parc Les Crayères","address":"64 Boulevard Henry Vasnier","postCode":"51100"}
{"title":"Guy Savoy","address":"Monnaie de Paris11 Quai de Conti","postCode":"75006"}
{"title":"Château d'Adoménil","address":"","postCode":"54300"}
{"title":"La Table de Franck Putelat","address":"80 chemin des Anglais","postCode":"11000"}
{"title":"L'Épuisette","address":"158 Vallon-des-Auffes","postCode":"13007"}
{"title":"Frédéric Doucet","address":"2 avenue de la Libération","postCode":"71120"}
{"title":"Le France","address":"8 place Cupillard","postCode":"25130"}
{"title":"Le Raisin","address":"2 pl. M. -Poisat","postCode":"01190"}
{"title":"L'Auberge des Glazicks","address":"7 rue de la Plage","postCode":"29550"}
{"title":"Apicius","address":"20 r. d'Artois","postCode":"75008"}
{"title":"Le Pousse-Pied","address":"84 bd des Vendéens","postCode":"85360"}
{"title":"L'Atelier d'Edmond","address":"au Fornet","postCode":"73150"}
{"title":"La Table des Blot - Auberge du Château","address":"1 Grande-Rue","postCode":"78720"}
{"title":"Auberge de la Diligence","address":"4 r. de la Libération","postCode":"49440"}
{"title":"La Scène Thélème","address":"18 Rue Troyon","postCode":"75017"}
{"title":"Georges Blanc","address":"pl. du Marché","postCode":"01540"}
{"title":"Jérôme Nutile - Le Mas de Boudan","address":"351 Chemin du Mas de Boudan","postCode":"30000"}
{"title":"L'Amaryllis","address":"chemin de Martorey","postCode":"71100"}
{"title":"Azimut","address":"273 r. de la Madelon","postCode":"73120"}
{"title":"Dominique Bouchet","address":"11 Rue Treilhard","postCode":"75008"}
{"title":"Lucas Carton","address":"9 pl. de la Madeleine","postCode":"75008"}
{"title":"Le Gabriel","address":"42 Avenue Gabriel","postCode":"75008"}
{"title":"Restaurant du Palais Royal","address":"110 Galerie de Valois - Jardin du Palais Royal","postCode":"75001"}
{"title":"Auberge à la Bonne Idée","address":"3 rue des Meuniers","postCode":"60350"}
{"title":"Terre-Mer","address":"16 r. du Jeu-de-Paume","postCode":"56400"}
{"title":"Sur Mesure par Thierry Marx","address":"251 r. St-Honoré","postCode":"75001"}
{"title":"U Santa Marina","address":"Marina di Santa Giulia","postCode":"20137"}
{"title":"Ed.Em","address":"4 imp. Chenevottes","postCode":"21190"}
{"title":"Côté Jardin","address":"14 rte de Bourges","postCode":"45500"}
{"title":"L'Émulsion","address":"57 rte de Lyon","postCode":"38080"}
{"title":"L'Aubergade","address":"78 rte Nationale","postCode":"80480"}
{"title":"Le Prieuré","address":"r. de la Mairie","postCode":"42820"}
{"title":"La Petite Maison de Cucuron","address":"pl. de l'Étang","postCode":"84160"}
{"title":"Le Haut-Allier","address":"LE PONT D ALLEYRAS","postCode":"43580"}
{"title":"Auberge de l'Île Barbe","address":"1 Place Notre-Dame","postCode":"69009"}
{"title":"Sylvestre","address":"79 rue St-Dominique","postCode":"75007"}
{"title":"Le Pily","address":"39 Grande-Rue","postCode":"50100"}
{"title":"Tour d'Argent","address":"15 quai de la Tournelle","postCode":"75005"}
{"title":"Passage 53","address":"53 passage des Panoramas","postCode":"75002"}
{"title":"Le Saint-Estève","address":"2250 route cézanne D17","postCode":"13100"}
{"title":"Garance","address":"34 r. St-Dominique","postCode":"75007"}
{"title":"La Marine","address":"11 r. de Paris","postCode":"50270"}
{"title":"Au 14 Février","address":"36 r. du Bœuf","postCode":""}
{"title":"L'Odas","address":"4 Passage Maurice Lenfant","postCode":"76000"}
{"title":"Le Jules Verne","address":"2<E>ème</E> étage Tour Eiffel","postCode":"75007"}
{"title":"David Toutain","address":"29 r. Surcouf","postCode":"75007"}
{"title":"Cobéa","address":"11 r. Raymond Losserand","postCode":"75014"}
{"title":"L'Atlantide 1874 - Maison Guého","address":"5 r. de l'Hermitage","postCode":"44100"}
{"title":"En Pleine Nature","address":"6 pl. de la Mairie","postCode":"31130"}
{"title":"La Promenade","address":"2 promenade Jean-Jaurès","postCode":"31590"}
{"title":"Maison Prévôt","address":"353 av. de Verdun","postCode":"84300"}
{"title":"Garopapilles","address":"62 r. Abbé-de-L'Epée","postCode":"33000"}
{"title":"Racine","address":"6 pl. Godinot","postCode":"51100"}
{"title":"Fanny Rey & Jonathan Wahid","address":"12, boulevard Mirabeau","postCode":"13210"}
{"title":"Neige d'Été","address":"12 Rue de l'Amiral Roussin","postCode":"75015"}
{"title":"La Tour","address":"31 Nouvelle-Place","postCode":"18300"}
{"title":"Palégrié","address":"Les Ritons","postCode":"38250"}
{"title":"Château du Mont Joly","address":"6 r. du Mont-Joly","postCode":"39100"}
{"title":"Vieux Pont","address":"","postCode":"12390"}
{"title":"La Table des Cordeliers","address":"1 r. des Cordeliers","postCode":"32100"}
{"title":"Christophe Bacquié","address":"Hotel du Castellet Route des Hauts du Camp","postCode":"83330"}
{"title":"Le Pré Catelan","address":"Route de Suresnes","postCode":"75016"}
{"title":"Auberge du Paradis","address":"Le Plâtre-Durand","postCode":"71570"}
{"title":"Étincelles - La Gentilhommière","address":"","postCode":"24440"}
{"title":"La Licorne Royale","address":"27 Place Isaac Benserade","postCode":"27480"}
{"title":"Antoine","address":"10 av. de New-York","postCode":"75116"}
{"title":"Le Pré du Moulin","address":"rte de Ste-Cécile-les-Vignes","postCode":"84830"}
{"title":"Le Belvédère","address":"11 rte du Maquis-Jean-Pierre","postCode":"12340"}
{"title":"Le Petit Hôtel du Grand Large","address":"11 quai St-Ivy","postCode":"56510"}
{"title":"Ze Kitchen Galerie","address":"4 r. des Grands-Augustins","postCode":"75006"}
{"title":"L'Orangerie du Château","address":"1 Avenue du Docteur Jean Laigret","postCode":"41000"}
{"title":"Rodolphe","address":"35 r. Percière","postCode":"76000"}
{"title":"Le Grand Restaurant - Jean-François Piège","address":"7 r. d'Aguesseau","postCode":"75008"}
{"title":"L'Aquarelle","address":"71 A rte du Montil","postCode":"17920"}
{"title":"Hostellerie Jérôme","address":"20 r. Comte de Cessole","postCode":"06320"}
{"title":"Le Moulin d'Alotz","address":"chemin Alotz-Errota","postCode":"64200"}
{"title":"Jean-Luc Tartarin","address":"Square Saint-Roch","postCode":"76600"}
{"title":"Ô Saveurs","address":"8 place Ormeaux au village","postCode":"31180"}
{"title":"Origine","address":"26 rampe Cauchoise","postCode":"76000"}
{"title":"L'Atelier de Joël Robuchon - St-Germain","address":"5 r. de Montalembert","postCode":"75007"}
{"title":"Roscanvec","address":"17 r. des Halles","postCode":"56000"}
{"title":"Alcyone","address":"1 Place Daviel","postCode":"13002"}
{"title":"Les Pêcheurs","address":"10 boulevard du Maréchal-Juin","postCode":"06600"}
{"title":"Le Clos St-Pierre","address":"pl. de la Mairie","postCode":"06650"}
{"title":"Le Pavillon","address":"av. du Verger","postCode":"62520"}
{"title":"Agapé","address":"51 rue Jouffroy-d'Abbans","postCode":"75017"}
{"title":"SaQuaNa","address":"22 pl. Hamelin","postCode":"14600"}
{"title":"Jérémy Galvan","address":"Rue du Boeuf","postCode":"69005"}
{"title":"Les Tablettes de Jean-Louis Nomicos","address":"16 avenue Bugeaud","postCode":"75116"}
{"title":"Mariottat","address":"25 r. L.-Vivent","postCode":"47000"}
{"title":"La Table by La Villa","address":"chemin de Notre-Dame-de-la-Serra","postCode":"20260"}
{"title":"Le Mas du Langoustier","address":"","postCode":"83400"}
{"title":"Le Colombier","address":"r. Loucheur","postCode":"76550"}
{"title":"Yam'Tcha","address":"121 r. St-Honoré","postCode":"75001"}
{"title":"Les Tables de Gaspard","address":"r. Principale","postCode":"05600"}
{"title":"La Bastide de Capelongue","address":"Chemin des Cabanes","postCode":"84480"}
{"title":"Umami","address":"8 r. des Dentelles","postCode":"67000"}
{"title":"Le Prieuré","address":"7 pl. du Chapitre","postCode":"30400"}
{"title":"Le P'tit Polyte","address":"2 Rue de la Chapelle","postCode":"38860"}
{"title":"Château de Vauchoux","address":"","postCode":"70170"}
{"title":"Le Marcq","address":"944 av. de la République","postCode":"59700"}
{"title":"Régis et Jacques Marcon","address":"Larsiallas","postCode":"43290"}
{"title":"Le Candille","address":"bd C. Rebuffel","postCode":"06250"}
{"title":"L'Atelier de Gaztelur","address":"Chemin de Gastelhur","postCode":"64200"}
{"title":"Le Village","address":"3 Grande-Rue","postCode":"78160"}
{"title":"La Mare aux Oiseaux","address":"223 RUE DU CHEF DE L'ILE Fedrun","postCode":"44720"}
{"title":"Pèir","address":"r. de la Combe","postCode":"84220"}
{"title":"Le Restaurant","address":"13 rue des Beaux-Arts","postCode":"75006"}
{"title":"Le 39V","address":"39 Avenue George V","postCode":"75008"}
{"title":"Mon Plaisir","address":"22 lieu-dit Journal","postCode":"25190"}
{"title":"La Table de La Butte","address":"10 rue de la Mer","postCode":"29260"}
{"title":"Le 7ème Continent","address":"35 av. Gén. -de-Gaulle","postCode":"68170"}
{"title":"Les Chênes Verts","address":"rte de Villecroze","postCode":"83690"}
{"title":"La Bastide St-Antoine","address":"48 av. Henri-Dunant","postCode":"06130"}
{"title":"Aida","address":"1 r. Pierre Leroux","postCode":"75007"}
{"title":"Avel Vor","address":"25 r. de Locmalo","postCode":"56290"}
{"title":"Copenhague","address":"142 AVENUE DES CHAMPS ELYSEES","postCode":"75008"}
{"title":"Dan B. - La Table de Ventabren","address":"r. F. -Mistral","postCode":"13122"}
{"title":"Le Cerf","address":"30 r. du Gén.-de-Gaulle","postCode":"67520"}
{"title":"Intuition","address":"1 r. Alsace-Lorraine","postCode":"50000"}
{"title":"Au 14 Février","address":"Le Plâtre-Durand","postCode":"71570"}
{"title":"La Palme d'Or","address":"73 Boulevard de la Croisette","postCode":"06400"}
{"title":"64° Le Restaurant","address":"9-13 Rue du Général de Gaulle","postCode":"68240"}
{"title":"Le Millénaire","address":"4 rue Bertin","postCode":"51100"}
{"title":"Pur' - Jean-François Rouquette","address":"5 r. de la Paix","postCode":"75002"}
{"title":"Relais de la Poste","address":"24 avenue de Maremne","postCode":"40140"}
{"title":"Les Explorateurs","address":"place du Slalom","postCode":"73440"}
{"title":"Palm Beach","address":"route des Iles Sanguinaires","postCode":"20000"}
{"title":"Le Domaine du Colombier","address":"270 Chemin de Malombre","postCode":"26780"}
{"title":"Les Cèdres","address":"25 Rue Henri MACHON","postCode":"26600"}
{"title":"Frédéric Simonin","address":"25 rue Bayen","postCode":"75017"}
{"title":"Paul Bocuse","address":"40 Rue de la Plage","postCode":"69660"}
{"title":"Le Kintessence","address":"Rue des Clarines","postCode":"73120"}
{"title":"L'Amphitryon","address":"127 r. du Col. -Müller","postCode":"56100"}
{"title":"Le Jasmin","address":"Lieu-dit Lalande","postCode":"47140"}
{"title":"St-James Paris","address":"43 av. Bugeaud","postCode":"75116"}
{"title":"Numéro 3","address":"3 rue du Général de Gaulle","postCode":"78490"}
{"title":"La Bonne Auberge","address":"15 r. Nationale","postCode":"57350"}
