{"title":"David Toutain","address":"29 r. Surcouf","postCode":"75007"}
{"title":"Le Pily","address":"39 Grande-Rue","postCode":"50100"}
{"title":"Le Cerf","address":"30 r. du Gén.-de-Gaulle","postCode":"67520"}
{"title":"La Tour des Vents","address":"Le Moulin de Malfourat","postCode":"24240"}
{"title":"Le Belvédère","address":"11 rte du Maquis-Jean-Pierre","postCode":"12340"}
{"title":"Vieux Pont","address":"","postCode":"12390"}
{"title":"Frédéric Doucet","address":"2 avenue de la Libération","postCode":"71120"}
{"title":"Le Saint-Estève","address":"2250 route cézanne D17","postCode":"13100"}
{"title":"G.a. au Manoir de Rétival","address":"Corniche de Rétival","postCode":"76490"}
{"title":"La Dame de Pic","address":"20 Rue du Louvre","postCode":"75001"}
{"title":"Les Terraillers","address":"11 Route Chemin-Neuf","postCode":"06410"}
{"title":"I Salti","address":"route du Reginu","postCode":"20226"}
{"title":"Auberge de l'Île Barbe","address":"1 Place Notre-Dame","postCode":"69009"}
{"title":"La Table de Franck Putelat","address":"80 chemin des Anglais","postCode":"11000"}
{"title":"Agapé","address":"51 rue Jouffroy-d'Abbans","postCode":"75017"}
{"title":"Le Prieuré","address":"7 pl. du Chapitre","postCode":"30400"}
{"title":"La Table des Cordeliers","address":"1 r. des Cordeliers","postCode":"32100"}
{"title":"Le Cloître","address":"Le Cloitre","postCode":"04300"}
{"title":"L'Orangerie du Château","address":"1 Avenue du Docteur Jean Laigret","postCode":"41000"}
{"title":"JY'S","address":"17 r. de la Poissonnerie","postCode":"68000"}
{"title":"Flocons de Sel","address":"1775 rte du Leutaz","postCode":"74120"}
{"title":"Le Jardin des Remparts","address":"10 rue Hôtel-Dieu","postCode":"21200"}
{"title":"Les Tablettes de Jean-Louis Nomicos","address":"16 avenue Bugeaud","postCode":"75116"}
{"title":"Restaurant du Palais Royal","address":"110 Galerie de Valois - Jardin du Palais Royal","postCode":"75001"}
{"title":"Les Pêcheurs","address":"10 boulevard du Maréchal-Juin","postCode":"06600"}
{"title":"Le 39V","address":"39 Avenue George V","postCode":"75008"}
{"title":"L'Atlantide 1874 - Maison Guého","address":"5 r. de l'Hermitage","postCode":"44100"}
{"title":"Paul Bocuse","address":"40 Rue de la Plage","postCode":"69660"}
{"title":"Étincelles - La Gentilhommière","address":"","postCode":"24440"}
{"title":"La Table d'Olivier","address":"3 r. St-Ambroise","postCode":"19100"}
{"title":"Christophe Bacquié","address":"Hotel du Castellet Route des Hauts du Camp","postCode":"83330"}
{"title":"Château du Mont Joly","address":"6 r. du Mont-Joly","postCode":"39100"}
{"title":"Auberge des Saints Pères","address":"212 av. de Nonneville","postCode":"93600"}
{"title":"Aigue Marine","address":"5 r. M. -Berthelot","postCode":"22220"}
{"title":"Le Moulin d'Alotz","address":"chemin Alotz-Errota","postCode":"64200"}
{"title":"Le Moulin de l'Abbaye","address":"1 avenue Pierre de Bourdeilles","postCode":"24310"}
{"title":"Tour d'Argent","address":"15 quai de la Tournelle","postCode":"75005"}
{"title":"Le Restaurant","address":"13 rue des Beaux-Arts","postCode":"75006"}
{"title":"L'Aubergade","address":"78 rte Nationale","postCode":"80480"}
{"title":"Le Pré Catelan","address":"Route de Suresnes","postCode":"75016"}
{"title":"Palégrié","address":"Les Ritons","postCode":"38250"}
{"title":"Auberge du Paradis","address":"Le Plâtre-Durand","postCode":"71570"}
{"title":"La Table by La Villa","address":"chemin de Notre-Dame-de-la-Serra","postCode":"20260"}
{"title":"Le Clos St-Pierre","address":"pl. de la Mairie","postCode":"06650"}
{"title":"L'Émulsion","address":"57 rte de Lyon","postCode":"38080"}
{"title":"Pèir","address":"r. de la Combe","postCode":"84220"}
{"title":"Château de Vauchoux","address":"","postCode":"70170"}
{"title":"Racine","address":"6 pl. Godinot","postCode":"51100"}
{"title":"Rodolphe","address":"35 r. Percière","postCode":"76000"}
{"title":"Garance","address":"34 r. St-Dominique","postCode":"75007"}
{"title":"U Santa Marina","address":"Marina di Santa Giulia","postCode":"20137"}
{"title":"Kei","address":"5 rue du Coq-Héron","postCode":"75001"}
{"title":"La Marine","address":"11 r. de Paris","postCode":"50270"}
{"title":"Le Musigny","address":"90 Avenue de Liege","postCode":"59300"}
{"title":"Le Marcq","address":"944 av. de la République","postCode":"59700"}
{"title":"Flaveur","address":"25 Rue Gubernatis","postCode":"06000"}
{"title":"Le Grand Restaurant - Jean-François Piège","address":"7 r. d'Aguesseau","postCode":"75008"}
{"title":"Shang Palace","address":"10 Avenue d'Iéna","postCode":"75016"}
{"title":"Le Jules Verne","address":"2<E>ème</E> étage Tour Eiffel","postCode":"75007"}
{"title":"Régis et Jacques Marcon","address":"Larsiallas","postCode":"43290"}
{"title":"Au 14 Février","address":"36 r. du Bœuf","postCode":""}
{"title":"Alan Geaam","address":"19 Rue Lauriston","postCode":"75016"}
{"title":"Château de Mercuès","address":"Route du Château","postCode":"46090"}
{"title":"Pierre","address":"7-9 rue Joseph Dufour","postCode":"71000"}
{"title":"Le Grand Véfour","address":"17 rue de Beaujolais","postCode":"75001"}
{"title":"La Table d'Uzès","address":"18 rue du Docteur Blanchard","postCode":"30700"}
{"title":"L'Escarbille","address":"8 Rue de Vélizy","postCode":"92190"}
{"title":"Maison Rostang","address":"20 rue Rennequin","postCode":"75017"}
{"title":"Le Pousse-Pied","address":"84 bd des Vendéens","postCode":"85360"}
{"title":"Frédéric Simonin","address":"25 rue Bayen","postCode":"75017"}
{"title":"Pic","address":"285 avenue Victor Hugo","postCode":"26000"}
{"title":"Azimut","address":"273 r. de la Madelon","postCode":"73120"}
{"title":"Le Jasmin","address":"Lieu-dit Lalande","postCode":"47140"}
{"title":"Le Prieuré","address":"r. de la Mairie","postCode":"42820"}
{"title":"Côté Jardin","address":"14 rte de Bourges","postCode":"45500"}
{"title":"L'Amphitryon","address":"127 r. du Col. -Müller","postCode":"56100"}
{"title":"Mon Plaisir","address":"22 lieu-dit Journal","postCode":"25190"}
{"title":"Jean-Luc Tartarin","address":"Square Saint-Roch","postCode":"76600"}
{"title":"Chapelle Saint-Martin","address":"33, Saint Martin du Fault","postCode":"87510"}
{"title":"Origine","address":"26 rampe Cauchoise","postCode":"76000"}
{"title":"La Table Breizh Café","address":"7 quai Thomas","postCode":"35260"}
{"title":"Le Domaine du Colombier","address":"270 Chemin de Malombre","postCode":"26780"}
{"title":"Les Rosiers","address":"32 av. Beau Soleil","postCode":"64200"}
{"title":"Loiseau des Ducs","address":"3 Rue Vauban","postCode":"21000"}
{"title":"La Table de l'Espadon","address":"15 Place Vendôme","postCode":"75001"}
{"title":"Le Sénéchal","address":"Sauveterre de Rouergue","postCode":"12800"}
{"title":"Relais Louis XIII","address":"8 Rue des Grands Augustins","postCode":"75006"}
{"title":"1920","address":"373 chemin des follières","postCode":"74120"}
{"title":"Les Explorateurs","address":"place du Slalom","postCode":"73440"}
{"title":"Jérémy Galvan","address":"Rue du Boeuf","postCode":"69005"}
{"title":"L'Ambroisie","address":"9 Place des Vosges","postCode":"75004"}
{"title":"Xavier Mathieu","address":"Route de Murs","postCode":"84220"}
{"title":"Rackham","address":"27 pl. Lacaze Duthiers rčs de l'église","postCode":"29680"}
{"title":"La Matelote","address":"80 Boulevard Ste Beuve","postCode":"62200"}
{"title":"Garopapilles","address":"62 r. Abbé-de-L'Epée","postCode":"33000"}
{"title":"Auberge de la Charme","address":"12 r. de la Charme","postCode":"21370"}
{"title":"Alexandre","address":"2 rue Xavier Tronc","postCode":"30128"}
{"title":"La Vague d'Or","address":"Plage de Bouillabaisse","postCode":"83990"}
{"title":"Le Pavillon","address":"av. du Verger","postCode":"62520"}
{"title":"La Table de la Ferme","address":"Vallée de l'Ortolo","postCode":"20100"}
{"title":"Mickaël Féval","address":"11 Petite-Rue-St-Jean","postCode":"13100"}
{"title":"L'Orée de la Forêt","address":"255 r. de la Forêt","postCode":"60600"}
{"title":"Auberge St-Walfrid","address":"58 r. de Grosbliederstroff","postCode":"57200"}
{"title":"Le Pot d'Étain","address":"4 av. de la République","postCode":"90400"}
{"title":"Allium","address":"88 bd de Créac'h-Gwen","postCode":"29000"}
{"title":"L'Océan","address":"43 bd Thiers","postCode":"64500"}
{"title":"L'Aromate","address":"2 r. Gustave Deloye","postCode":"06000"}
{"title":"Henri et Joseph","address":"4 r. Léo-le-Bourgo","postCode":"56100"}
{"title":"Au 14 Février","address":"Le Plâtre-Durand","postCode":"71570"}
{"title":"Baumanière 1850","address":"rte de Bellecôte","postCode":"73120"}
{"title":"L'Hysope","address":"25 r. de l'Aurore","postCode":"17220"}
{"title":"Gaya Rive Gauche par Pierre Gagnaire","address":"44 r. du Bac","postCode":"75007"}
{"title":"Château de la Treyne","address":"","postCode":"46200"}
{"title":"Intuition","address":"1 r. Alsace-Lorraine","postCode":"50000"}
{"title":"Les Genêts","address":"21 bis Rue de l'Océan","postCode":"85470"}
{"title":"Les Pyrénées","address":"19 pl. Ch.-de-Gaulle","postCode":"64220"}
{"title":"Le Neuvième Art","address":"173 r. Cuvier","postCode":"69006"}
{"title":"Le Montgomerie","address":"356 rte de l'Altiport","postCode":"73120"}
{"title":"Palm Beach","address":"route des Iles Sanguinaires","postCode":"20000"}
{"title":"Château de Codignat","address":"Bort l'Etang","postCode":"63190"}
{"title":"La Vieille Tour","address":"75 r. de la Tour","postCode":"22190"}
{"title":"Maison Crouzil et Hôtel L'Écrin","address":"20 les Quais","postCode":"22130"}
{"title":"Pages","address":"4 r. Auguste-Vacquerie","postCode":"75016"}
{"title":"Le St-Martin","address":"1 r. du Gén.-Leclerc","postCode":"25200"}
{"title":"Pertinence","address":"29 r. de l'Exposition","postCode":"75007"}
{"title":"Laurent","address":"41 av. Gabriel","postCode":"75008"}
{"title":"Yam'Tcha","address":"121 r. St-Honoré","postCode":"75001"}
{"title":"Étude","address":"14 r. Bouquet-de-Longchamp","postCode":"75016"}
{"title":"Apicius","address":"20 r. d'Artois","postCode":"75008"}
{"title":"La Bonne Auberge","address":"15 r. Nationale","postCode":"57350"}
{"title":"Saturne","address":"17 r. N.-D.-des-Victoires","postCode":"75002"}
{"title":"Les Tables de Gaspard","address":"r. Principale","postCode":"05600"}
{"title":"La Cachette","address":"Rue des Cévennes","postCode":"26000"}
{"title":"Le Chabichou","address":"90 Route des Chenus","postCode":"73120"}
{"title":"Le Bec au Cauchois","address":"22 Rue André Fiquet","postCode":"76540"}
{"title":"Guy Lassausaie","address":"r. de Belle-Sise","postCode":"69380"}
{"title":"Restaurant de Lauzun","address":"3 bd de l'Esplanade","postCode":"34150"}
{"title":"Le George","address":"31 Avenue George V","postCode":"75008"}
{"title":"La Table Saint-Crescent","address":"route de Perpignan","postCode":"11100"}
{"title":"Le Saint-James","address":"3 pl. Camille-Hostein","postCode":"33270"}
{"title":"Le Puits St-Jacques","address":"av. Victor-Capoul","postCode":"32600"}
{"title":"Ze Kitchen Galerie","address":"4 r. des Grands-Augustins","postCode":"75006"}
{"title":"Hostellerie du Rosenmeer","address":"45 avenue de la Gare","postCode":"67560"}
{"title":"Meurin","address":"Rue de Lillers","postCode":"62350"}
{"title":"Le France","address":"8 place Cupillard","postCode":"25130"}
{"title":"Le 7ème Continent","address":"35 av. Gén. -de-Gaulle","postCode":"68170"}
{"title":"Les Climats","address":"41 rue de Lille","postCode":"75007"}
{"title":"Le Patio","address":"10 bd de la Plage","postCode":"33120"}
{"title":"La Grenouillère","address":"19 r. de la Grenouillère","postCode":"62170"}
{"title":"Nakatani","address":"27 Rue Pierre Leroux","postCode":"75007"}
{"title":"Le Kaïku","address":"17 r. de la République","postCode":"64500"}
{"title":"Hostellerie de Levernois","address":"Rue du Golf","postCode":"21200"}
{"title":"Au Déjeuner de Sousceyrac","address":"r. Pierre-Benoit","postCode":"46190"}
{"title":"L'Amphitryon","address":"chemin de Gramont","postCode":"31770"}
{"title":"Les Trois Dômes","address":"20 quai Gailleton","postCode":"69002"}
{"title":"La Licorne Royale","address":"27 Place Isaac Benserade","postCode":"27480"}
{"title":"Château de Mirambeau","address":"1 Avenue des Comtes Duchatel","postCode":"17150"}
{"title":"La Grignotière","address":"6 Rue Jean Jaures","postCode":"59590"}
{"title":"Logis de la Cadène","address":"Place du Marche au Bois","postCode":"33330"}
{"title":"Py-r","address":"19 descente de la Halle-aux-Poissons","postCode":"31000"}
{"title":"Julien Binz","address":"7 Rue des Cigognes","postCode":"68770"}
{"title":"Auberge du Vert Mont","address":"1318 r. du Mont-Noir","postCode":"59299"}
{"title":"Le M","address":"22 r. du Cdt-Drogou","postCode":"29200"}
{"title":"La Table","address":"32 Rue de la Barre","postCode":"59000"}
{"title":"Au 14 Février","address":"2 r. du Portail","postCode":"36100"}
{"title":"La Bastide de Moustiers","address":"Parc naturel régional du Verdon, Chemin de Quinson","postCode":"04360"}
{"title":"L'Atelier du Peintre","address":"1 Rue Schongauer","postCode":"68000"}
{"title":"Initial","address":"24 Rue Saint-Manvieu","postCode":"14000"}
{"title":"Stéphane Tournié - Les Jardins de l'Opéra","address":"1 place du Capitole","postCode":"31000"}
{"title":"Copenhague","address":"142 AVENUE DES CHAMPS ELYSEES","postCode":"75008"}
{"title":"Le Skiff Club","address":"1 av. Louis-Gaume","postCode":"33260"}
{"title":"Quinsou","address":"33 r. de l'Abbé-Grégoire","postCode":"75006"}
{"title":"Jérôme Feck","address":"19 pl. Mgr-Tissier","postCode":"51000"}
{"title":"Jean Sulpice","address":"303 rte du Port","postCode":"74290"}
{"title":"Pierre Reboul","address":"260 r. Guillaume-du-Vair","postCode":"13546"}
{"title":"Montée","address":"9 r. Léopold-Robert","postCode":"75014"}
{"title":"Restaurant H","address":"13 r. Jean-Beausire","postCode":"75004"}
{"title":"Ken Kawasaki","address":"15 r. Caulaincourt","postCode":"75018"}
{"title":"Le Chateaubriand","address":"129 av. Parmentier","postCode":"75011"}
{"title":"L'Auberge de Bagatelle","address":"489 av. Bollée","postCode":"72000"}
{"title":"Divellec","address":"18 r. Fabert","postCode":"75007"}
{"title":"Le Grand Cap","address":"chemin du Phare","postCode":"11370"}
{"title":"Comice","address":"31 av. de Versailles","postCode":"75016"}
{"title":"Sushi B","address":"5 r. Rameau","postCode":"75002"}
{"title":"Transparence \"La Table de Patrick Fréchin\"","address":"28 r. Stanislas","postCode":"54000"}
{"title":"La Merise","address":"7 r. d'Eschbach","postCode":"67580"}
{"title":"Jean Chauvel","address":"33 av. Général-Leclerc","postCode":"92100"}
{"title":"St-James Paris","address":"43 av. Bugeaud","postCode":"75116"}
{"title":"La Table d'Hôtes - Le Quatrième Mur","address":"2 pl. de la Comédie","postCode":"33000"}
{"title":"Ima","address":"20 bd de la Tour-d'Auvergne","postCode":"35000"}
{"title":"Gavroche","address":"4 r. Klein","postCode":"67000"}
{"title":"Le Château de Sable","address":"38 r. de l'Europe","postCode":"29840"}
{"title":"Akrame","address":"7 r. Tronchet","postCode":"75008"}
{"title":"Clovis","address":"21 Grand-Rue","postCode":"06140"}
{"title":"Les Ducs de Lorraine","address":"5 av. Provence","postCode":"88000"}
{"title":"L'Écrin","address":"10 place de la Concorde","postCode":"75008"}
{"title":"La Rastègue","address":"48 bd du Levant","postCode":"83230"}
{"title":"Au Déjeuner de Sousceyrac","address":"r. Pierre-Benoit","postCode":"46190"}
{"title":"L'Arôme","address":"3 rue St-Philippe-du-Roule","postCode":"75008"}
{"title":"Auberge de l'Ill","address":"2 rue de Collonges-au-Mont d'Or","postCode":"68970"}
{"title":"Dominique Bucaille","address":"715 av. des Savels","postCode":"04100"}
{"title":"Les Cèdres","address":"25 Rue Henri MACHON","postCode":"26600"}
{"title":"La Liégeoise","address":"digue de mer","postCode":"62930"}
{"title":"Hostellerie Bérard","address":"Avenue Gabriel-Péri","postCode":"83740"}
{"title":"Les Trois Dômes","address":"20 quai Gailleton","postCode":"69002"}
{"title":"William Frachot","address":"5 rue Michelet","postCode":"21000"}
{"title":"Le Gabriel","address":"42 Avenue Gabriel","postCode":"75008"}
{"title":"La Table d'Uzès","address":"18 rue du Docteur Blanchard","postCode":"30700"}
{"title":"L'Axel","address":"43 r. de France","postCode":"77300"}
{"title":"Le Carrousel","address":"14 rue du Pont de Morge","postCode":"63350"}
{"title":"Apicius","address":"Marché Saint Pierre 1 étage","postCode":"63000"}
{"title":"Le Clair de la Plume","address":"Place du Mail","postCode":"26230"}
{"title":"Patrick Jeffroy","address":"20 rue du Kelenn","postCode":"29660"}
{"title":"Maison Rostang","address":"20 rue Rennequin","postCode":"75017"}
{"title":"Paloma","address":"47 Avenue du Moulin de la Croix","postCode":"06250"}
{"title":"Auberge du Bon Laboureur","address":"6 r. Dr Bretonneau","postCode":"37150"}
{"title":"Mère Brazier","address":"12 rue Royale","postCode":"69001"}
{"title":"Auberge St-Laurent","address":"1 rue Fontaine","postCode":"68510"}
{"title":"Logis de la Cadène","address":"Place du Marche au Bois","postCode":"33330"}
{"title":"Les Clefs d'Argent","address":"333 Avenue des Martyrs de la Résistance","postCode":"40000"}
{"title":"Numéro 3","address":"3 rue du Général de Gaulle","postCode":"78490"}
{"title":"Les Berceaux","address":"13 rue des Berceaux","postCode":"51200"}
{"title":"Le M","address":"22 r. du Cdt-Drogou","postCode":"29200"}
{"title":"Le Relais Bernard Loiseau","address":"2, rue d'Argentine","postCode":"21210"}
{"title":"Grand Hôtel du Lion d'Or","address":"69 r. Clemenceau","postCode":"41200"}
{"title":"Le Mascaret","address":"1 r. de Bas","postCode":"50560"}
{"title":"Le Taillevent","address":"15 Rue Lamennais","postCode":"75008"}
{"title":"Le Moulin du Roc","address":"Avenue Eugène Le Roy","postCode":"24530"}
{"title":"Fanny Rey & Jonathan Wahid","address":"12, boulevard Mirabeau","postCode":"13210"}
{"title":"Le Cinq","address":"31 av. George V","postCode":"75008"}
{"title":"AM par Alexandre Mazzia","address":"9 rue François Rocca","postCode":"13008"}
{"title":"René et Maxime Meilleur","address":"Saint Marcel","postCode":"73440"}
{"title":"L'Almandin","address":"Boulevard de l'Almandin","postCode":"66750"}
{"title":"Au 14 Février","address":"Le Plâtre-Durand","postCode":"71570"}
{"title":"Le Neuvième Art","address":"173 r. Cuvier","postCode":"69006"}
{"title":"Yam'Tcha","address":"121 r. St-Honoré","postCode":"75001"}
{"title":"Maison Crouzil et Hôtel L'Écrin","address":"20 les Quais","postCode":"22130"}
{"title":"Les Pyrénées","address":"19 pl. Ch.-de-Gaulle","postCode":"64220"}
{"title":"Gavroche","address":"4 r. Klein","postCode":"67000"}
{"title":"Mickaël Féval","address":"11 Petite-Rue-St-Jean","postCode":"13100"}
{"title":"L'Orée de la Forêt","address":"255 r. de la Forêt","postCode":"60600"}
{"title":"Château de la Treyne","address":"","postCode":"46200"}
{"title":"Allium","address":"88 bd de Créac'h-Gwen","postCode":"29000"}
{"title":"Le Château de Sable","address":"38 r. de l'Europe","postCode":"29840"}
{"title":"L'Aromate","address":"2 r. Gustave Deloye","postCode":"06000"}
{"title":"L'Hysope","address":"25 r. de l'Aurore","postCode":"17220"}
{"title":"St-James Paris","address":"43 av. Bugeaud","postCode":"75116"}
{"title":"Gaya Rive Gauche par Pierre Gagnaire","address":"44 r. du Bac","postCode":"75007"}
{"title":"Apicius","address":"20 r. d'Artois","postCode":"75008"}
{"title":"La Bonne Auberge","address":"15 r. Nationale","postCode":"57350"}
{"title":"Saturne","address":"17 r. N.-D.-des-Victoires","postCode":"75002"}
{"title":"Palm Beach","address":"route des Iles Sanguinaires","postCode":"20000"}
{"title":"Transparence \"La Table de Patrick Fréchin\"","address":"28 r. Stanislas","postCode":"54000"}
{"title":"Intuition","address":"1 r. Alsace-Lorraine","postCode":"50000"}
{"title":"Les Tables de Gaspard","address":"r. Principale","postCode":"05600"}
{"title":"Auberge St-Walfrid","address":"58 r. de Grosbliederstroff","postCode":"57200"}
{"title":"Henri et Joseph","address":"4 r. Léo-le-Bourgo","postCode":"56100"}
{"title":"Les Genêts","address":"21 bis Rue de l'Océan","postCode":"85470"}
{"title":"Clovis","address":"21 Grand-Rue","postCode":"06140"}
{"title":"Le St-Martin","address":"1 r. du Gén.-Leclerc","postCode":"25200"}
{"title":"Château de Codignat","address":"Bort l'Etang","postCode":"63190"}
{"title":"Laurent","address":"41 av. Gabriel","postCode":"75008"}
{"title":"Le Pot d'Étain","address":"4 av. de la République","postCode":"90400"}
{"title":"Étude","address":"14 r. Bouquet-de-Longchamp","postCode":"75016"}
{"title":"Le Musigny","address":"90 Avenue de Liege","postCode":"59300"}
{"title":"Alan Geaam","address":"19 Rue Lauriston","postCode":"75016"}
{"title":"Relais Louis XIII","address":"8 Rue des Grands Augustins","postCode":"75006"}
{"title":"Auberge du Dun","address":"3 rte de Dieppe","postCode":"76740"}
{"title":"Le Montgomerie","address":"356 rte de l'Altiport","postCode":"73120"}
{"title":"La Marande","address":"lieu-dit Mirande","postCode":"71260"}
{"title":"La Table","address":"32 Rue de la Barre","postCode":"59000"}
{"title":"La Cachette","address":"Rue des Cévennes","postCode":"26000"}
{"title":"L'Atelier du Peintre","address":"1 Rue Schongauer","postCode":"68000"}
{"title":"Le Bec au Cauchois","address":"22 Rue André Fiquet","postCode":"76540"}
{"title":"Le Grand Véfour","address":"17 rue de Beaujolais","postCode":"75001"}
{"title":"La Coquerie","address":"1 chemin du Cimetière-Marin","postCode":"34200"}
{"title":"Mathieu Pacaud - Histoires","address":"85 Avenue Kléber","postCode":"75016"}
{"title":"Le Violon d'Ingres","address":"135 route St-Dominique","postCode":"75007"}
{"title":"Nakatani","address":"27 Rue Pierre Leroux","postCode":"75007"}
{"title":"La Vague d'Or","address":"Plage de Bouillabaisse","postCode":"83990"}
{"title":"Guy Lassausaie","address":"r. de Belle-Sise","postCode":"69380"}
{"title":"La Mare aux Oiseaux","address":"223 RUE DU CHEF DE L'ILE Fedrun","postCode":"44720"}
{"title":"Stéphane Tournié - Les Jardins de l'Opéra","address":"1 place du Capitole","postCode":"31000"}
{"title":"La Grignotière","address":"6 Rue Jean Jaures","postCode":"59590"}
{"title":"Le Puits St-Jacques","address":"av. Victor-Capoul","postCode":"32600"}
{"title":"Auberge de la Mine","address":"le Gué-Plat","postCode":"61450"}
{"title":"Julien Binz","address":"7 Rue des Cigognes","postCode":"68770"}
{"title":"La Matelote","address":"80 Boulevard Ste Beuve","postCode":"62200"}
{"title":"Le France","address":"8 place Cupillard","postCode":"25130"}
{"title":"Le Cloître","address":"Le Cloitre","postCode":"04300"}
{"title":"Copenhague","address":"142 AVENUE DES CHAMPS ELYSEES","postCode":"75008"}
{"title":"Casadelmar","address":"Route de la Plage de Palombaggia","postCode":"20137"}
{"title":"Rackham","address":"27 pl. Lacaze Duthiers rčs de l'église","postCode":"29680"}
{"title":"Le Chiberta","address":"3 Rue Arsène Houssaye","postCode":"75008"}
{"title":"La Table Breizh Café","address":"7 quai Thomas","postCode":"35260"}
{"title":"Flaveurs","address":"32 Grande-Rue","postCode":"26000"}
{"title":"1920","address":"373 chemin des follières","postCode":"74120"}
{"title":"Sur Mesure par Thierry Marx","address":"251 r. St-Honoré","postCode":"75001"}
{"title":"Au Trou Gascon","address":"40 r. Taine","postCode":"75012"}
{"title":"Quinsou","address":"33 r. de l'Abbé-Grégoire","postCode":"75006"}
{"title":"Jean Chauvel","address":"33 av. Général-Leclerc","postCode":"92100"}
{"title":"Divellec","address":"18 r. Fabert","postCode":"75007"}
{"title":"Restaurant H","address":"13 r. Jean-Beausire","postCode":"75004"}
{"title":"La Merise","address":"7 r. d'Eschbach","postCode":"67580"}
{"title":"La Table de la Ferme","address":"Vallée de l'Ortolo","postCode":"20100"}
{"title":"Le Chateaubriand","address":"129 av. Parmentier","postCode":"75011"}
{"title":"Jérôme Feck","address":"19 pl. Mgr-Tissier","postCode":"51000"}
{"title":"Le Skiff Club","address":"1 av. Louis-Gaume","postCode":"33260"}
{"title":"Sushi B","address":"5 r. Rameau","postCode":"75002"}
{"title":"La Vieille Tour","address":"75 r. de la Tour","postCode":"22190"}
{"title":"Le Grand Cap","address":"chemin du Phare","postCode":"11370"}
{"title":"Baumanière 1850","address":"rte de Bellecôte","postCode":"73120"}
{"title":"Comice","address":"31 av. de Versailles","postCode":"75016"}
{"title":"Akrame","address":"7 r. Tronchet","postCode":"75008"}
{"title":"Le Clos St-Pierre","address":"pl. de la Mairie","postCode":"06650"}
{"title":"Pertinence","address":"29 r. de l'Exposition","postCode":"75007"}
{"title":"La Marine","address":"11 r. de Paris","postCode":"50270"}
{"title":"Garopapilles","address":"62 r. Abbé-de-L'Epée","postCode":"33000"}
{"title":"Jean Sulpice","address":"303 rte du Port","postCode":"74290"}
{"title":"Rodolphe","address":"35 r. Percière","postCode":"76000"}
{"title":"L'Auberge de Bagatelle","address":"489 av. Bollée","postCode":"72000"}
{"title":"L'Océan","address":"43 bd Thiers","postCode":"64500"}
{"title":"Ken Kawasaki","address":"15 r. Caulaincourt","postCode":"75018"}
{"title":"Azimut","address":"273 r. de la Madelon","postCode":"73120"}
{"title":"Pierre Reboul","address":"260 r. Guillaume-du-Vair","postCode":"13546"}
{"title":"Montée","address":"9 r. Léopold-Robert","postCode":"75014"}
{"title":"Garance","address":"34 r. St-Dominique","postCode":"75007"}
{"title":"Pages","address":"4 r. Auguste-Vacquerie","postCode":"75016"}
{"title":"Le Pousse-Pied","address":"84 bd des Vendéens","postCode":"85360"}
{"title":"Aux Terrasses","address":"18 av. du 23-Janvier","postCode":"71700"}
{"title":"Le Bon Accueil","address":"32 Grande-Rue","postCode":"25160"}
{"title":"La Palmeraie","address":"81 Boulevard de Gigaro","postCode":"83420"}
{"title":"Le Favre d'Anne","address":"21 bd du Mar.-Foch","postCode":"49000"}
{"title":"La Gloire","address":"74 av. du Gén.-de-Gaulle","postCode":"45200"}
{"title":"Miraflores","address":"60 r. Garibaldi","postCode":"69006"}
{"title":"Brikéténia","address":"142 r. de l'Église","postCode":"64210"}
{"title":"Une Table au Sud","address":"2 quai du Port","postCode":"13002"}
{"title":"Le Pavé d'Auge","address":"D49","postCode":"14430"}
{"title":"Meurin","address":"Rue de Lillers","postCode":"62350"}
{"title":"Auberge St-Jean","address":"8 r. du Pont","postCode":"33420"}
{"title":"Hostellerie du Rosenmeer","address":"45 avenue de la Gare","postCode":"67560"}
{"title":"Fontevraud Le Restaurant","address":"38 rue St-Jean-de-l'Habit","postCode":"49590"}
{"title":"Les Terrasses de Lyon","address":"25, montée Saint BArthelémy","postCode":"69005"}
{"title":"La Chèvre d'Or","address":"r. du Barri","postCode":"06360"}
{"title":"L'Atelier de Gaztelur","address":"Chemin de Gastelhur","postCode":"64200"}
{"title":"L'Essentiel","address":"8 r. de la Clarté","postCode":"24000"}
{"title":"La Réserve Rimbaud","address":"820 Avenue de Saint-Maur","postCode":"34000"}
{"title":"Le Foch","address":"37 bd Foch","postCode":"51100"}
{"title":"Le Village","address":"3 Grande-Rue","postCode":"78160"}
{"title":"Le Camélia","address":"7 quai Georges Clemenceau","postCode":"78380"}
{"title":"Le 1947","address":"Cheval Blanc Courchevel - Le Jardin Alpin","postCode":"73120"}
{"title":"Le Grand Bleu","address":"43 av. de la Gare","postCode":"24200"}
{"title":"Auberge du Vert Mont","address":"1318 r. du Mont-Noir","postCode":"59299"}
{"title":"Le Pré - Xavier Beaudiment","address":"3 Route de la Baraque","postCode":"63830"}
{"title":"La Maison dans le Parc","address":"3 r. Ste-Catherine","postCode":"54000"}
{"title":"La Table d'Eugène","address":"18 r. Eugène-Sue","postCode":"75018"}
{"title":"Auberge du Cellier","address":"1 Rue de Sainte-Eugénie","postCode":"66720"}
{"title":"Les Climats","address":"41 rue de Lille","postCode":"75007"}
{"title":"Auberge Grand'Maison","address":"1 r. Léon-le-Cerf","postCode":"22530"}
{"title":"Le Cap","address":"71 Boulevard du Général-de-Gaulle","postCode":"06230"}
{"title":"La Ferme de l'Hospital","address":"rte du golf","postCode":"74160"}
{"title":"Neige d'Été","address":"12 Rue de l'Amiral Roussin","postCode":"75015"}
{"title":"Château Cordeillan-Bages","address":"route des chateaux","postCode":"33250"}
{"title":"Le Vieux Logis","address":"Le Bourg","postCode":"24510"}
{"title":"Louison","address":"2750 route de la cride","postCode":"13610"}
{"title":"Origine","address":"26 rampe Cauchoise","postCode":"76000"}
{"title":"Le Park 45","address":"45 bd de la Croisette","postCode":"06400"}
{"title":"Ima","address":"20 bd de la Tour-d'Auvergne","postCode":"35000"}
{"title":"La Table d'Hôtes - Le Quatrième Mur","address":"2 pl. de la Comédie","postCode":"33000"}
{"title":"U Santa Marina","address":"Marina di Santa Giulia","postCode":"20137"}
{"title":"Palégrié","address":"Les Ritons","postCode":"38250"}
{"title":"Racine","address":"6 pl. Godinot","postCode":"51100"}
{"title":"Pèir","address":"r. de la Combe","postCode":"84220"}
{"title":"Le Grand Restaurant - Jean-François Piège","address":"7 r. d'Aguesseau","postCode":"75008"}
{"title":"La Table by La Villa","address":"chemin de Notre-Dame-de-la-Serra","postCode":"20260"}
{"title":"Château de Vauchoux","address":"","postCode":"70170"}
{"title":"Le Marcq","address":"944 av. de la République","postCode":"59700"}
{"title":"Auberge du Paradis","address":"Le Plâtre-Durand","postCode":"71570"}
{"title":"Le Pavillon","address":"av. du Verger","postCode":"62520"}
{"title":"L'Émulsion","address":"57 rte de Lyon","postCode":"38080"}
{"title":"Le Saint-Martin","address":"Avenue des Templiers","postCode":"06140"}
{"title":"Auberge du Bon Laboureur","address":"6 r. Dr Bretonneau","postCode":"37150"}
{"title":"Dyades au Domaine des Étangs","address":"Les Etangs","postCode":"16310"}
{"title":"Le Moulin de l'Abbaye","address":"1 avenue Pierre de Bourdeilles","postCode":"24310"}
{"title":"Château de Courban","address":"7 rue du Lavoir","postCode":"21520"}
{"title":"L'Almandin","address":"Boulevard de l'Almandin","postCode":"66750"}
{"title":"La Table de Nans","address":"corniche du Liouquet","postCode":"13600"}
{"title":"Le Chiberta","address":"3 Rue Arsène Houssaye","postCode":"75008"}
{"title":"Mère Brazier","address":"12 rue Royale","postCode":"69001"}
{"title":"L'Arcane","address":"39 Rue Lamarck","postCode":"75018"}
{"title":"Numéro 3","address":"3 rue du Général de Gaulle","postCode":"78490"}
{"title":"Le Cloître","address":"Le Cloitre","postCode":"04300"}
{"title":"Le Cerisier","address":"3 rue de la Gare","postCode":"62840"}
{"title":"William Frachot","address":"5 rue Michelet","postCode":"21000"}
{"title":"Skab","address":"7 Rue de la République","postCode":"30000"}
{"title":"Le Violon d'Ingres","address":"135 route St-Dominique","postCode":"75007"}
{"title":"Le Lido","address":"42 av. Napoléon-III","postCode":"20110"}
{"title":"Le Gabriel","address":"42 Avenue Gabriel","postCode":"75008"}
{"title":"Le Pavillon des Boulevards","address":"120 r. Croix-de-Seguey","postCode":"33000"}
{"title":"Le Beaulieu","address":"34 Bis Place République","postCode":"72000"}
{"title":"Maison Decoret","address":"15 rue du Parc","postCode":"03200"}
{"title":"L'Auberge Basque","address":"quartier Helbarron","postCode":"64310"}
{"title":"Le Relais Bernard Loiseau","address":"2, rue d'Argentine","postCode":"21210"}
{"title":"Le Bénaton","address":"25 Rue du Faubourg-Bretonnière","postCode":"21200"}
{"title":"Jin","address":"6 Rue de la Sourdière","postCode":"75001"}
{"title":"Le Moulin du Roc","address":"Avenue Eugène Le Roy","postCode":"24530"}
{"title":"La Liégeoise","address":"digue de mer","postCode":"62930"}
{"title":"Le Kléber","address":"6 r. A. -Dumont","postCode":"26400"}
{"title":"Fanny Rey & Jonathan Wahid","address":"12, boulevard Mirabeau","postCode":"13210"}
{"title":"Auguste","address":"54 r. Bourgogne","postCode":"75007"}
{"title":"Le Gourmet de Sèze","address":"125 Rue de Sèze","postCode":"69006"}
{"title":"La Côte Saint-Jacques","address":"14 faubourg de Paris","postCode":"89300"}
{"title":"Au Trou Gascon","address":"40 r. Taine","postCode":"75012"}
{"title":"Le Castellaras","address":"461 chemin Peymeyan","postCode":"83440"}
{"title":"ES","address":"91 r. de Grenelle","postCode":"75007"}
{"title":"Paloma","address":"47 Avenue du Moulin de la Croix","postCode":"06250"}
{"title":"L'Orangerie","address":"31 Avenue George-V","postCode":"75008"}
{"title":"Hostellerie Bérard","address":"Avenue Gabriel-Péri","postCode":"83740"}
{"title":"L'Arnsbourg","address":"Untermuhlthal","postCode":"57230"}
{"title":"114, Faubourg","address":"114 r. Fg St-Honoré","postCode":"75008"}
{"title":"Mathieu Pacaud - Histoires","address":"85 Avenue Kléber","postCode":"75016"}
{"title":"Lucas Carton","address":"9 pl. de la Madeleine","postCode":"75008"}
{"title":"Pierre Gagnaire","address":"6 Rue Balzac","postCode":"75008"}
{"title":"La Table du Gourmet","address":"5 rue 1ère Armée","postCode":"68340"}
{"title":"Le Georges","address":"22 pl. des Épars","postCode":"28000"}
{"title":"Ithurria","address":"pl. du Fronton","postCode":"64250"}
{"title":"Auberge du Pont d'Acigné","address":"D392","postCode":"35530"}
{"title":"Auberge du Cellier","address":"1 Rue de Sainte-Eugénie","postCode":"66720"}
{"title":"Domaine d'Auriac","address":"Route de Saint-Hilaire","postCode":"11000"}
{"title":"Gill","address":"9 quai de la Bourse","postCode":"76000"}
{"title":"Têtedoie","address":"4 rue du Professeur Pierre MARION","postCode":"69005"}
{"title":"La Robe","address":"3 pl. Reveillère-Lepeaux","postCode":"85600"}
{"title":"Le Champ des Lunes","address":"route de Roquefraîche","postCode":"84360"}
{"title":"La Lorraine","address":"80 rue Principale","postCode":"57330"}
{"title":"En Marge","address":"1204 rte de la Croix-Falgarde","postCode":"31320"}
{"title":"Carré des Feuillants","address":"14 rue de Castiglione","postCode":"75001"}
{"title":"Le Vieux Logis","address":"Le Bourg","postCode":"24510"}
{"title":"Le Hittau","address":"1 rue du Nouaou","postCode":"40230"}
{"title":"La Chèvre d'Or","address":"r. du Barri","postCode":"06360"}
{"title":"Patrick Jeffroy","address":"20 rue du Kelenn","postCode":"29660"}
{"title":"Les Loges","address":"6 r. du Boeuf","postCode":"69005"}
{"title":"Sur Mesure par Thierry Marx","address":"251 r. St-Honoré","postCode":"75001"}
{"title":"La Table de l'Alpaga","address":"66 Allée des Marmousets","postCode":"74120"}
{"title":"Loiseau des Vignes","address":"31 Rue Jean Francois Maufoux","postCode":"21200"}
{"title":"Table - Bruno Verjus","address":"3 r. de Prague","postCode":"75012"}
{"title":"Au Crocodile","address":"10 rue de L'Outre","postCode":"67000"}
{"title":"Chez Michèle","address":"57 rue Principale","postCode":"57810"}
{"title":"Hostellerie Jérôme","address":"20 r. Comte de Cessole","postCode":"06320"}
{"title":"Maximilien","address":"19a rte Ostheim","postCode":"68340"}
{"title":"Guy Savoy","address":"Monnaie de Paris11 Quai de Conti","postCode":"75006"}
{"title":"Assiette Champenoise","address":"40 av. Paul Vaillant-Couturier","postCode":"51430"}
{"title":"Le Prieuré","address":"7 pl. du Chapitre","postCode":"30400"}
{"title":"La Barbacane","address":"Place Auguste-Pierre-Pont","postCode":"11000"}
{"title":"Le Quinzième - Cyril Lignac","address":"14 rue Cauchy","postCode":"75015"}
{"title":"1217","address":"le bourg","postCode":"69620"}
{"title":"La Rotonde","address":"200 avenue du Casino","postCode":"69890"}
{"title":"Le Bistro des Saveurs","address":"35 Rue de Sélestat","postCode":"67210"}
{"title":"Château Cordeillan-Bages","address":"route des chateaux","postCode":"33250"}
{"title":"L'Éveil des Sens","address":"429 bd Paul-Lintier","postCode":"53100"}
{"title":"Le Pergolèse","address":"40, Rue Pergolèse","postCode":"75016"}
{"title":"Haut Bonheur de la Table","address":"18 Grand-Place","postCode":"59670"}
{"title":"Le Pêché Gourmand","address":"2 rte de Gap","postCode":"05100"}
{"title":"La Ville Blanche","address":"La Ville Blanche","postCode":"22300"}
{"title":"Château Blanchard","address":"36 rte de St-Galmier","postCode":"42140"}
{"title":"Relais de la Poste","address":"24 avenue de Maremne","postCode":"40140"}
{"title":"Radio","address":"43 av. P. et M.-Curie","postCode":"63400"}
{"title":"Lou Cigalon-Maison Martin","address":"6 bd Carnot","postCode":"06560"}
{"title":"Auberge Le Prieuré","address":"4 Grand'Rue","postCode":"47310"}
{"title":"Restaurant du Château","address":"15 avenue des Reynats","postCode":"24650"}
{"title":"La Fourchette du Printemps","address":"30 r. du Printemps","postCode":"75017"}
{"title":"Val d'Auge","address":"805 av. du Gén.-de-Gaulle","postCode":"59910"}
{"title":"Le Moulin des Quatre Saisons","address":"r. Gallieni","postCode":"72200"}
{"title":"L'Alchémille","address":"53 rte de Lapoutroie","postCode":"68240"}
{"title":"Le Petit Nice","address":"Anse de Maldormé - Corniche J. F. Kennedy","postCode":"13007"}
{"title":"La Roya","address":"plage de la Roya","postCode":"20217"}
{"title":"La Marine","address":"3 r. Marie-Lemonnier","postCode":"85330"}
{"title":"La Chaumière","address":"346 av. du Mar. -Juin","postCode":"39100"}
{"title":"Le Roc Alto","address":"Quartier La Ville","postCode":"05350"}
{"title":"Château de Pray","address":"Rue du Cèdre","postCode":"37400"}
{"title":"Le Sérac","address":"22 r. de la Comtesse","postCode":"74170"}
{"title":"Le Magasin aux Vivres","address":"5 Avenue Ney","postCode":"57000"}
{"title":"À Contre Sens","address":"8-10 r. des Croisiers","postCode":"14000"}
{"title":"Akrame","address":"7 r. Tronchet","postCode":"75008"}
{"title":"La Table d'Hôtes - Le Quatrième Mur","address":"2 pl. de la Comédie","postCode":"33000"}
{"title":"La Table de la Ferme","address":"Vallée de l'Ortolo","postCode":"20100"}
{"title":"Quinsou","address":"33 r. de l'Abbé-Grégoire","postCode":"75006"}
{"title":"Montée","address":"9 r. Léopold-Robert","postCode":"75014"}
{"title":"Garopapilles","address":"62 r. Abbé-de-L'Epée","postCode":"33000"}
{"title":"La Merise","address":"7 r. d'Eschbach","postCode":"67580"}
{"title":"Jean Chauvel","address":"33 av. Général-Leclerc","postCode":"92100"}
{"title":"Le Chateaubriand","address":"129 av. Parmentier","postCode":"75011"}
{"title":"Ima","address":"20 bd de la Tour-d'Auvergne","postCode":"35000"}
{"title":"L'Aromate","address":"2 r. Gustave Deloye","postCode":"06000"}
{"title":"Auberge de la Tour","address":"Place de la Fontaine","postCode":"15220"}
{"title":"L'Océan","address":"43 bd Thiers","postCode":"64500"}
{"title":"Yam'Tcha","address":"121 r. St-Honoré","postCode":"75001"}
{"title":"Henri et Joseph","address":"4 r. Léo-le-Bourgo","postCode":"56100"}
{"title":"Étude","address":"14 r. Bouquet-de-Longchamp","postCode":"75016"}
{"title":"Transparence \"La Table de Patrick Fréchin\"","address":"28 r. Stanislas","postCode":"54000"}
{"title":"Saturne","address":"17 r. N.-D.-des-Victoires","postCode":"75002"}
{"title":"Le Millénaire","address":"4 rue Bertin","postCode":"51100"}
{"title":"Jean Sulpice","address":"303 rte du Port","postCode":"74290"}
{"title":"U Santa Marina","address":"Marina di Santa Giulia","postCode":"20137"}
{"title":"Le Grand Cap","address":"chemin du Phare","postCode":"11370"}
{"title":"Le Chantecler","address":"37 Promenade des Anglais","postCode":"06000"}
{"title":"L'Oasis","address":"rue Jean-Honoré Carle","postCode":"06210"}
{"title":"La Bonne Auberge","address":"15 r. Nationale","postCode":"57350"}
{"title":"Mickaël Féval","address":"11 Petite-Rue-St-Jean","postCode":"13100"}
{"title":"Au 14 Février","address":"Le Plâtre-Durand","postCode":"71570"}
{"title":"Pèir","address":"r. de la Combe","postCode":"84220"}
{"title":"Pierre Reboul","address":"260 r. Guillaume-du-Vair","postCode":"13546"}
{"title":"L'Orée de la Forêt","address":"255 r. de la Forêt","postCode":"60600"}
{"title":"Rodolphe","address":"35 r. Percière","postCode":"76000"}
{"title":"Les Pyrénées","address":"19 pl. Ch.-de-Gaulle","postCode":"64220"}
{"title":"Agapé","address":"51 rue Jouffroy-d'Abbans","postCode":"75017"}
{"title":"Le Marcq","address":"944 av. de la République","postCode":"59700"}
{"title":"La Madeleine","address":"1 Rue Alsace-Lorraine","postCode":"89100"}
{"title":"L'Atelier de Gaztelur","address":"Chemin de Gastelhur","postCode":"64200"}
{"title":"Auberge du Paradis","address":"Le Plâtre-Durand","postCode":"71570"}
{"title":"Le Pavillon","address":"av. du Verger","postCode":"62520"}
{"title":"Palm Beach","address":"route des Iles Sanguinaires","postCode":"20000"}
{"title":"Le Pot d'Étain","address":"4 av. de la République","postCode":"90400"}
{"title":"Garance","address":"34 r. St-Dominique","postCode":"75007"}
{"title":"La Table by La Villa","address":"chemin de Notre-Dame-de-la-Serra","postCode":"20260"}
{"title":"Clovis","address":"21 Grand-Rue","postCode":"06140"}
{"title":"Les Genêts","address":"21 bis Rue de l'Océan","postCode":"85470"}
{"title":"Divellec","address":"18 r. Fabert","postCode":"75007"}
{"title":"Le St-Martin","address":"1 r. du Gén.-Leclerc","postCode":"25200"}
{"title":"Auberge St-Walfrid","address":"58 r. de Grosbliederstroff","postCode":"57200"}
{"title":"Apicius","address":"20 r. d'Artois","postCode":"75008"}
{"title":"Allium","address":"88 bd de Créac'h-Gwen","postCode":"29000"}
{"title":"Le Grand Restaurant - Jean-François Piège","address":"7 r. d'Aguesseau","postCode":"75008"}
{"title":"Palégrié","address":"Les Ritons","postCode":"38250"}
{"title":"Maison Crouzil et Hôtel L'Écrin","address":"20 les Quais","postCode":"22130"}
{"title":"Girardin","address":"19 Rue des Têtes","postCode":"68000"}
{"title":"L'Auberge des Glazicks","address":"7 rue de la Plage","postCode":"29550"}
{"title":"L'Auberge de Bagatelle","address":"489 av. Bollée","postCode":"72000"}
{"title":"Azimut","address":"273 r. de la Madelon","postCode":"73120"}
{"title":"Pertinence","address":"29 r. de l'Exposition","postCode":"75007"}
{"title":"Une Table au Sud","address":"2 quai du Port","postCode":"13002"}
{"title":"Mavrommatis","address":"42 rue Daubenton","postCode":"75005"}
{"title":"Benoit","address":"20 Rue St-Martin","postCode":"75004"}
{"title":"Pertica","address":"15 pl. de la République","postCode":"41100"}
{"title":"Laurent","address":"41 av. Gabriel","postCode":"75008"}
{"title":"Hostellerie Les Gorges de Pennafort","address":"8660 RD 25","postCode":"83830"}
{"title":"JAN","address":"12 Rue Lascaris","postCode":"06000"}
{"title":"L'Amaryllis","address":"chemin de Martorey","postCode":"71100"}
{"title":"Au Vieux Couvent","address":"6 r. des Chanoines","postCode":"67860"}
{"title":"La Bastide de Moustiers","address":"Parc naturel régional du Verdon, Chemin de Quinson","postCode":"04360"}
{"title":"Comice","address":"31 av. de Versailles","postCode":"75016"}
{"title":"La Grand'Vigne","address":"chemin de Smith-Haut-Lafitte","postCode":"33650"}
{"title":"Sushi B","address":"5 r. Rameau","postCode":"75002"}
{"title":"Maximin Hellio","address":"64 Rue Gambetta","postCode":"14800"}
{"title":"Le Haut-Allier","address":"LE PONT D ALLEYRAS","postCode":"43580"}
{"title":"Jérôme Feck","address":"19 pl. Mgr-Tissier","postCode":"51000"}
{"title":"Le Clos St-Pierre","address":"pl. de la Mairie","postCode":"06650"}
{"title":"Le Corot","address":"55 Rue de Versailles","postCode":"92410"}
{"title":"Georges Blanc","address":"pl. du Marché","postCode":"01540"}
{"title":"Maison Kieny","address":"7 Rue du Général de Gaulle","postCode":"68400"}
{"title":"Restaurant du Palais Royal","address":"110 Galerie de Valois - Jardin du Palais Royal","postCode":"75001"}
{"title":"Le Carmin","address":"4B Place Carnot","postCode":"21200"}
{"title":"Restaurant H","address":"13 r. Jean-Beausire","postCode":"75004"}
{"title":"Hostellerie la Montagne","address":"10 rue Pisseloup","postCode":"52330"}
{"title":"Manoir de la Boulaie","address":"33 rue Chapelle St-Martin","postCode":"44115"}
{"title":"L'Hysope","address":"25 r. de l'Aurore","postCode":"17220"}
{"title":"La Vieille Tour","address":"75 r. de la Tour","postCode":"22190"}
{"title":"L'O des Vignes","address":"r. du Bourg","postCode":"71960"}
{"title":"Greuze","address":"1 r. A. Thibaudet","postCode":"71700"}
{"title":"Entre Vigne et Garrigue","address":"600 route de Saint Bruno","postCode":"30131"}
{"title":"Le Pousse-Pied","address":"84 bd des Vendéens","postCode":"85360"}
{"title":"Ken Kawasaki","address":"15 r. Caulaincourt","postCode":"75018"}
{"title":"Le Saint-James","address":"3 pl. Camille-Hostein","postCode":"33270"}
{"title":"Baumanière 1850","address":"rte de Bellecôte","postCode":"73120"}
{"title":"Helen","address":"3 r.Berryer","postCode":"75008"}
{"title":"Racine","address":"6 pl. Godinot","postCode":"51100"}
{"title":"Pages","address":"4 r. Auguste-Vacquerie","postCode":"75016"}
{"title":"Château de Vauchoux","address":"","postCode":"70170"}
{"title":"La Marine","address":"11 r. de Paris","postCode":"50270"}
{"title":"L'Émulsion","address":"57 rte de Lyon","postCode":"38080"}
{"title":"Domaine des Séquoias","address":"54 Vie-de-Boussieu","postCode":"38300"}
{"title":"Le Skiff Club","address":"1 av. Louis-Gaume","postCode":"33260"}
{"title":"Château de Codignat","address":"Bort l'Etang","postCode":"63190"}
{"title":"Auberge La Pomme d'Api","address":"49 r. Verderel","postCode":"29250"}
{"title":"La Palmeraie","address":"81 Boulevard de Gigaro","postCode":"83420"}
{"title":"La Ferme de l'Hospital","address":"rte du golf","postCode":"74160"}
{"title":"Le Pavé d'Auge","address":"D49","postCode":"14430"}
{"title":"Le Taillevent","address":"15 Rue Lamennais","postCode":"75008"}
{"title":"Mirazur","address":"30, Avenue Aristide Briand","postCode":"06500"}
{"title":"La Licorne Royale","address":"27 Place Isaac Benserade","postCode":"27480"}
{"title":"Auberge Grand'Maison","address":"1 r. Léon-le-Cerf","postCode":"22530"}
{"title":"Elsa","address":"Monte-Carlo Beach - Avenue Princesse Grace","postCode":"06190"}
{"title":"Le Grand Bleu","address":"43 av. de la Gare","postCode":"24200"}
{"title":"Le Pré - Xavier Beaudiment","address":"3 Route de la Baraque","postCode":"63830"}
{"title":"Dominique Bouchet","address":"11 Rue Treilhard","postCode":"75008"}
{"title":"Le Fanal","address":"17 Avenue du Fontaulé","postCode":"66650"}
{"title":"Auberge des Saints Pères","address":"212 av. de Nonneville","postCode":"93600"}
{"title":"Le Figuier de St-Esprit","address":"7, Promenade Amiral de Grasse","postCode":"06600"}
{"title":"Lasserre","address":"17 Avenue F. -D. -Roosevelt","postCode":"75008"}
{"title":"Le Baudelaire","address":"6-8 rue Duphot","postCode":"75001"}
{"title":"Le Meurice Alain Ducasse","address":"228 Rue de Rivoli","postCode":"75001"}
{"title":"Le 1947","address":"Cheval Blanc Courchevel - Le Jardin Alpin","postCode":"73120"}
{"title":"L'Auberge de la Pomme","address":"44 rue de l' eure","postCode":"27340"}
{"title":"G.a. au Manoir de Rétival","address":"Corniche de Rétival","postCode":"76490"}
{"title":"La Réserve Rimbaud","address":"820 Avenue de Saint-Maur","postCode":"34000"}
{"title":"L'Ekrin by Laurent Azoulay","address":"Route de la Montée","postCode":"73550"}
{"title":"La Maison dans le Parc","address":"3 r. Ste-Catherine","postCode":"54000"}
{"title":"Le Vivarais","address":"5 avenue Expilly","postCode":"07600"}
{"title":"Le Moulin de la Gorce","address":"D17","postCode":"87800"}
{"title":"Lamartine","address":"Route du Tunnel du Chat","postCode":"73370"}
{"title":"Fontevraud Le Restaurant","address":"38 rue St-Jean-de-l'Habit","postCode":"49590"}
{"title":"Le Parc Les Crayères","address":"64 Boulevard Henry Vasnier","postCode":"51100"}
{"title":"Les Rosiers","address":"32 av. Beau Soleil","postCode":"64200"}
{"title":"Le Raisin","address":"2 pl. M. -Poisat","postCode":"01190"}
{"title":"Antoine","address":"10 av. de New-York","postCode":"75116"}
{"title":"Les Trois Soleils de Montal","address":"St-Jean-Lespinasse","postCode":"46400"}
{"title":"La Table de Manville","address":"Domaine de Manville - D27","postCode":"13520"}
{"title":"Pur' - Jean-François Rouquette","address":"5 r. de la Paix","postCode":"75002"}
{"title":"La Scène","address":"33 Avenue George V","postCode":"75008"}
{"title":"1131","address":"D 33","postCode":"21360"}
{"title":"Initial","address":"24 Rue Saint-Manvieu","postCode":"14000"}
{"title":"Jérôme Nutile - Le Mas de Boudan","address":"351 Chemin du Mas de Boudan","postCode":"30000"}
{"title":"Le Farçon","address":"immeuble la Kalinka","postCode":"73125"}
{"title":"Jean-Luc Tartarin","address":"Square Saint-Roch","postCode":"76600"}
{"title":"La Maison d'à Côté","address":"17 rue de Chambord","postCode":"41350"}
{"title":"Kasbür","address":"8 Rue de Dettwiller","postCode":"67700"}
{"title":"Le St-Placide","address":"6 place du poncel","postCode":"35400"}
{"title":"Le Domaine de la Corniche","address":"5 rte de la Corniche","postCode":"78270"}
{"title":"Anne de Bretagne","address":"163, Boulevard de la Tara","postCode":"44770"}
{"title":"Il Cortile","address":"11 r. des Franciscains","postCode":"68100"}
{"title":"Hostellerie du Rosenmeer","address":"45 avenue de la Gare","postCode":"67560"}
{"title":"Auberge du Cheval Blanc","address":"4 Route de Wissembourg","postCode":"67510"}
{"title":"Le Clocher des Pères","address":"D213","postCode":"73130"}
{"title":"Les Jardins de l'Espadon","address":"15 place Vendôme","postCode":"75001"}
{"title":"Le Saison","address":"1 imp. du Vieux-Bourg","postCode":"35760"}
{"title":"Gaya Rive Gauche par Pierre Gagnaire","address":"44 r. du Bac","postCode":"75007"}
{"title":"Maison Rostang","address":"20 rue Rennequin","postCode":"75017"}
{"title":"Maison Lameloise","address":"36 pl. d'Armes","postCode":"71150"}
{"title":"Auberge de Clochemerle","address":"Rue Gabriel-Chevallier","postCode":"69460"}
{"title":"Le Manoir du Lys","address":"D235","postCode":"61140"}
{"title":"Faventia","address":"3100 route de Bagnols-en-Forêt","postCode":"83440"}
{"title":"Auberge au Boeuf","address":"Rue de l'Eglise","postCode":"67770"}
{"title":"La Promenade","address":"11 rue du Savoureulx","postCode":"37350"}
{"title":"Auberge au Boeuf","address":"Rue de l'Eglise","postCode":"67770"}
{"title":"La Passagère","address":"33 boulevard E. -Baudoin","postCode":"06160"}
{"title":"Michel Chabran - La Grande Table","address":"29 Avenue du Quarante-Cinquième Parallèle","postCode":"26600"}
{"title":"Le Petit Hôtel du Grand Large","address":"11 quai St-Ivy","postCode":"56510"}
{"title":"Pierre","address":"7-9 rue Joseph Dufour","postCode":"71000"}
{"title":"Le M","address":"22 r. du Cdt-Drogou","postCode":"29200"}
{"title":"Le Mascaret","address":"1 r. de Bas","postCode":"50560"}
{"title":"Louison","address":"2750 route de la cride","postCode":"13610"}
{"title":"La Renaissance","address":"20 av. 2e-Division-Blindée","postCode":"61200"}
{"title":"Pic","address":"285 avenue Victor Hugo","postCode":"26000"}
{"title":"Jérôme Brochot","address":"Place Beaubernard","postCode":"71300"}
{"title":"La Table des Merville","address":"3 place Richard","postCode":"31320"}
{"title":"L'Impertinent","address":"5, rue d'Alsace","postCode":"64200"}
{"title":"L'Odas","address":"4 Passage Maurice Lenfant","postCode":"76000"}
{"title":"Intuition","address":"1 r. Alsace-Lorraine","postCode":"50000"}
{"title":"St-James Paris","address":"43 av. Bugeaud","postCode":"75116"}
{"title":"Château de la Treyne","address":"","postCode":"46200"}
{"title":"Le Neuvième Art","address":"173 r. Cuvier","postCode":"69006"}
{"title":"Le Château de Sable","address":"38 r. de l'Europe","postCode":"29840"}
{"title":"Le Montgomerie","address":"356 rte de l'Altiport","postCode":"73120"}
{"title":"Gavroche","address":"4 r. Klein","postCode":"67000"}
{"title":"Les Tables de Gaspard","address":"r. Principale","postCode":"05600"}
{"title":"La Dame de Pic","address":"20 Rue du Louvre","postCode":"75001"}
{"title":"La Bonne Étape","address":"chemin du lac","postCode":"04160"}
{"title":"Bruno","address":"2350 route des Arcs, Campagne Mariette","postCode":"83510"}
{"title":"Le Pressoir","address":"7 r. de l'Hôpital","postCode":"56890"}
{"title":"Auberge du Vieux Puits","address":"5 Avenue Saint-Victor","postCode":"11360"}
{"title":"Alain Llorca","address":"350 Route de St-Paul","postCode":"06480"}
{"title":"Château de Courban","address":"7 rue du Lavoir","postCode":"21520"}
{"title":"Auberge du Dun","address":"3 rte de Dieppe","postCode":"76740"}
{"title":"Villa Archange","address":"Rue de l'Ouest","postCode":"06110"}
{"title":"Il Carpaccio","address":"37 avenue Hoche","postCode":"75008"}
{"title":"Pont de l'Ouysse","address":"D23","postCode":"46200"}
{"title":"Le Pavé d'Auge","address":"D49","postCode":"14430"}
{"title":"La Grande Cascade","address":"Carrefour de Longchamp","postCode":"75016"}
{"title":"J.-M. Pérochon","address":"63 avenue de la Grand'Roche","postCode":"85470"}
{"title":"Le Quincangrogne","address":"7 Rue de l'Abreuvoir","postCode":"77400"}
{"title":"Le Brittany","address":"bd Ste-Barbe","postCode":"29681"}
{"title":"Auberge Tiegezh","address":"7 Place de la Gare","postCode":"56380"}
{"title":"Les Bacchanales","address":"247 avenue de Provence","postCode":"06140"}
{"title":"Le Figuier de St-Esprit","address":"7, Promenade Amiral de Grasse","postCode":"06600"}
{"title":"Les Fresques","address":"D18","postCode":"24240"}
{"title":"Le Jardin de Benjamin","address":"Route de Salernes","postCode":"83510"}
{"title":"Le Cap","address":"71 Boulevard du Général-de-Gaulle","postCode":"06230"}
{"title":"Domaine des Hauts de Loire","address":"79 rue Gilbert Navard","postCode":"41150"}
{"title":"Pierre Orsi","address":"Place Kléber","postCode":"69006"}
{"title":"Le Strasbourg","address":"24 r. du Col. -Teyssier","postCode":"57230"}
{"title":"Le Pré du Moulin","address":"rte de Ste-Cécile-les-Vignes","postCode":"84830"}
{"title":"La Gouesnière","address":"1 Le Limonay","postCode":"35350"}
{"title":"JY'S","address":"17 r. de la Poissonnerie","postCode":"68000"}
{"title":"Le Grand Cerf","address":"50 rte Nationale","postCode":"51500"}
{"title":"Le Relais des Moines","address":"route de Ste-Roseline","postCode":"83460"}
{"title":"Relais de la Poste","address":"21 rue du Gén. -de-Gaulle","postCode":"67610"}
{"title":"L'Aparté","address":"21 Rue de l’Europe","postCode":"31850"}
{"title":"Aux Pesked","address":"59 Rue du Légué","postCode":"22000"}
{"title":"Les Hautes Roches","address":"86 quai de Loire","postCode":"37210"}
{"title":"L'Auberge de la Pomme","address":"44 rue de l' eure","postCode":"27340"}
{"title":"L'Oustau de Baumanière","address":"Village des Baux-de-Provence","postCode":"13520"}
{"title":"Cyril Attrazic","address":"10 rte du Languedoc","postCode":"48130"}
{"title":"Les Bas-Rupts","address":"181 rte de la Bresse","postCode":"88400"}
{"title":"La Maison de Bournissac","address":"montée d'Eyragues","postCode":"13550"}
{"title":"Pierre Reboul","address":"260 r. Guillaume-du-Vair","postCode":"13546"}
{"title":"Restaurant H","address":"13 r. Jean-Beausire","postCode":"75004"}
{"title":"Le Grand Cap","address":"chemin du Phare","postCode":"11370"}
{"title":"Sushi B","address":"5 r. Rameau","postCode":"75002"}
{"title":"Divellec","address":"18 r. Fabert","postCode":"75007"}
{"title":"L'Auberge de Bagatelle","address":"489 av. Bollée","postCode":"72000"}
{"title":"Le Skiff Club","address":"1 av. Louis-Gaume","postCode":"33260"}
{"title":"Akrame","address":"7 r. Tronchet","postCode":"75008"}
{"title":"Le Chateaubriand","address":"129 av. Parmentier","postCode":"75011"}
{"title":"Ima","address":"20 bd de la Tour-d'Auvergne","postCode":"35000"}
{"title":"Comice","address":"31 av. de Versailles","postCode":"75016"}
{"title":"Ken Kawasaki","address":"15 r. Caulaincourt","postCode":"75018"}
{"title":"U Santa Marina","address":"Marina di Santa Giulia","postCode":"20137"}
{"title":"Garopapilles","address":"62 r. Abbé-de-L'Epée","postCode":"33000"}
{"title":"Le Clos St-Pierre","address":"pl. de la Mairie","postCode":"06650"}
{"title":"Jérôme Feck","address":"19 pl. Mgr-Tissier","postCode":"51000"}
{"title":"Montée","address":"9 r. Léopold-Robert","postCode":"75014"}
{"title":"La Table d'Hôtes - Le Quatrième Mur","address":"2 pl. de la Comédie","postCode":"33000"}
{"title":"La Merise","address":"7 r. d'Eschbach","postCode":"67580"}
{"title":"Jean Chauvel","address":"33 av. Général-Leclerc","postCode":"92100"}
{"title":"La Marine","address":"11 r. de Paris","postCode":"50270"}
{"title":"Pertinence","address":"29 r. de l'Exposition","postCode":"75007"}
{"title":"Le Pousse-Pied","address":"84 bd des Vendéens","postCode":"85360"}
{"title":"Le Grand Restaurant - Jean-François Piège","address":"7 r. d'Aguesseau","postCode":"75008"}
{"title":"L'Émulsion","address":"57 rte de Lyon","postCode":"38080"}
{"title":"Racine","address":"6 pl. Godinot","postCode":"51100"}
{"title":"Auberge du Paradis","address":"Le Plâtre-Durand","postCode":"71570"}
{"title":"Rodolphe","address":"35 r. Percière","postCode":"76000"}
{"title":"Azimut","address":"273 r. de la Madelon","postCode":"73120"}
{"title":"Garance","address":"34 r. St-Dominique","postCode":"75007"}
{"title":"Le Pavillon","address":"av. du Verger","postCode":"62520"}
{"title":"MaSa","address":"112 avenue Victor-Hugo","postCode":"92100"}
{"title":"La Table d'Eugène","address":"18 r. Eugène-Sue","postCode":"75018"}
{"title":"Château de Sully","address":"D6","postCode":"14400"}
{"title":"La Villa Madie","address":"av. du Revestel","postCode":"13260"}
{"title":"Auberge du Vert Mont","address":"1318 r. du Mont-Noir","postCode":"59299"}
{"title":"Auberge St-Jean","address":"8 r. du Pont","postCode":"33420"}
{"title":"Villa René Lalique","address":"18 Rue Bellevue","postCode":"67290"}
{"title":"Ed.Em","address":"4 imp. Chenevottes","postCode":"21190"}
{"title":"Le Camélia","address":"7 quai Georges Clemenceau","postCode":"78380"}
{"title":"La Rastègue","address":"48 bd du Levant","postCode":"83230"}
{"title":"Brikéténia","address":"142 r. de l'Église","postCode":"64210"}
{"title":"Domaine de Rochevilaine","address":"à la Pointe de Pen Lan","postCode":"56190"}
{"title":"Le Park 45","address":"45 bd de la Croisette","postCode":"06400"}
{"title":"Le Bon Accueil","address":"32 Grande-Rue","postCode":"25160"}
{"title":"Auberge à la Bonne Idée","address":"3 rue des Meuniers","postCode":"60350"}
{"title":"En Pleine Nature","address":"6 pl. de la Mairie","postCode":"31130"}
{"title":"Miraflores","address":"60 r. Garibaldi","postCode":"69006"}
{"title":"Le Carré d'Alethius","address":"4 r. Paul-Bertois","postCode":"07800"}
{"title":"La Bastide St-Antoine","address":"48 av. Henri-Dunant","postCode":"06130"}
{"title":"Le Village","address":"3 Grande-Rue","postCode":"78160"}
{"title":"Aux Terrasses","address":"18 av. du 23-Janvier","postCode":"71700"}
{"title":"L'Épuisette","address":"158 Vallon-des-Auffes","postCode":"13007"}
{"title":"Prairial","address":"11 Rue Chavanne","postCode":"69001"}
{"title":"Le Favre d'Anne","address":"21 bd du Mar.-Foch","postCode":"49000"}
{"title":"1912","address":"bd de la Cahotte","postCode":"14360"}
{"title":"Cobéa","address":"11 r. Raymond Losserand","postCode":"75014"}
{"title":"La Coquerie","address":"1 chemin du Cimetière-Marin","postCode":"34200"}
{"title":"Flocons de Sel","address":"1775 rte du Leutaz","postCode":"74120"}
{"title":"Le Foch","address":"37 bd Foch","postCode":"51100"}
{"title":"La Marande","address":"lieu-dit Mirande","postCode":"71260"}
{"title":"La Gloire","address":"74 av. du Gén.-de-Gaulle","postCode":"45200"}
{"title":"L'Essentiel","address":"8 r. de la Clarté","postCode":"24000"}
{"title":"Penati al Baretto","address":"9 rue Balzac","postCode":"75008"}
{"title":"L'Ekrin by Laurent Azoulay","address":"Route de la Montée","postCode":"73550"}
{"title":"Palégrié","address":"Les Ritons","postCode":"38250"}
{"title":"Pèir","address":"r. de la Combe","postCode":"84220"}
{"title":"Le Prieuré","address":"7 pl. du Chapitre","postCode":"30400"}
{"title":"Le Pêché Gourmand","address":"2 rte de Gap","postCode":"05100"}
{"title":"La Robe","address":"3 pl. Reveillère-Lepeaux","postCode":"85600"}
{"title":"Palm Beach","address":"route des Iles Sanguinaires","postCode":"20000"}
{"title":"Yam'Tcha","address":"121 r. St-Honoré","postCode":"75001"}
{"title":"Le Sérac","address":"22 r. de la Comtesse","postCode":"74170"}
{"title":"La Ville Blanche","address":"La Ville Blanche","postCode":"22300"}
{"title":"Haut Bonheur de la Table","address":"18 Grand-Place","postCode":"59670"}
{"title":"Château de la Treyne","address":"","postCode":"46200"}
{"title":"La Bonne Auberge","address":"15 r. Nationale","postCode":"57350"}
{"title":"La Table de la Ferme","address":"Vallée de l'Ortolo","postCode":"20100"}
{"title":"Lou Cigalon-Maison Martin","address":"6 bd Carnot","postCode":"06560"}
{"title":"Le Moulin des Quatre Saisons","address":"r. Gallieni","postCode":"72200"}
{"title":"Château Blanchard","address":"36 rte de St-Galmier","postCode":"42140"}
{"title":"Château de Vauchoux","address":"","postCode":"70170"}
{"title":"Jean Sulpice","address":"303 rte du Port","postCode":"74290"}
{"title":"Au 14 Février","address":"Le Plâtre-Durand","postCode":"71570"}
{"title":"Val d'Auge","address":"805 av. du Gén.-de-Gaulle","postCode":"59910"}
{"title":"Auberge Le Prieuré","address":"4 Grand'Rue","postCode":"47310"}
{"title":"L'Alchémille","address":"53 rte de Lapoutroie","postCode":"68240"}
{"title":"L'Éveil des Sens","address":"429 bd Paul-Lintier","postCode":"53100"}
{"title":"La Fourchette du Printemps","address":"30 r. du Printemps","postCode":"75017"}
{"title":"Le Marcq","address":"944 av. de la République","postCode":"59700"}
{"title":"ES","address":"91 r. de Grenelle","postCode":"75007"}
{"title":"La Roya","address":"plage de la Roya","postCode":"20217"}
{"title":"Saturne","address":"17 r. N.-D.-des-Victoires","postCode":"75002"}
{"title":"L'Orée de la Forêt","address":"255 r. de la Forêt","postCode":"60600"}
{"title":"Table - Bruno Verjus","address":"3 r. de Prague","postCode":"75012"}
{"title":"Le Champ des Lunes","address":"route de Roquefraîche","postCode":"84360"}
{"title":"Maximilien","address":"19a rte Ostheim","postCode":"68340"}
{"title":"Les Terrasses de Lyon","address":"25, montée Saint BArthelémy","postCode":"69005"}
{"title":"Auberge Frankenbourg","address":"13 r. Gén. de Gaulle","postCode":"67730"}
{"title":"La Table de Nans","address":"corniche du Liouquet","postCode":"13600"}
{"title":"Les Terrasses d'Uriage","address":"pl. Déesse-Hygie","postCode":"38410"}
{"title":"Le Bistro des Saveurs","address":"35 Rue de Sélestat","postCode":"67210"}
{"title":"La Nouvelle Auberge","address":"9 route Nationale","postCode":"68230"}
{"title":"Alcyone","address":"1 Place Daviel","postCode":"13002"}
{"title":"Girardin","address":"19 Rue des Têtes","postCode":"68000"}
{"title":"Alliance","address":"5 Rue de Poissy","postCode":"75005"}
{"title":"Skab","address":"7 Rue de la République","postCode":"30000"}
{"title":"Hervé Busset","address":"D901","postCode":"12320"}
{"title":"La Lorraine","address":"80 rue Principale","postCode":"57330"}
{"title":"Au Crocodile","address":"10 rue de L'Outre","postCode":"67000"}
{"title":"Auberge du Pont d'Acigné","address":"D392","postCode":"35530"}
{"title":"Albert 1er","address":"38 rte du Bouchet","postCode":"74400"}
{"title":"Sylvestre","address":"79 rue St-Dominique","postCode":"75007"}
{"title":"La Marine","address":"3 r. Marie-Lemonnier","postCode":"85330"}
{"title":"Le Vivarais","address":"5 avenue Expilly","postCode":"07600"}
{"title":"114, Faubourg","address":"114 r. Fg St-Honoré","postCode":"75008"}
{"title":"La Table du Gourmet","address":"5 rue 1ère Armée","postCode":"68340"}
{"title":"Relais Louis XIII","address":"8 Rue des Grands Augustins","postCode":"75006"}
{"title":"Septime","address":"80 r. de Charonne","postCode":"75011"}
{"title":"Auberge au Boeuf","address":"Rue de l'Eglise","postCode":"67770"}
{"title":"Hostellerie de Plaisance","address":"5 place du Clocher","postCode":"33330"}
{"title":"Le Lido","address":"42 av. Napoléon-III","postCode":"20110"}
{"title":"Château de Mercuès","address":"Route du Château","postCode":"46090"}
{"title":"La Table de l'Alpaga","address":"66 Allée des Marmousets","postCode":"74120"}
{"title":"Avel Vor","address":"25 r. de Locmalo","postCode":"56290"}
{"title":"Le Gourmet de Sèze","address":"125 Rue de Sèze","postCode":"69006"}
{"title":"Maison Christian Étienne","address":"10 Rue de Mons","postCode":"84000"}
{"title":"Château d'Adoménil","address":"","postCode":"54300"}
{"title":"Jin","address":"6 Rue de la Sourdière","postCode":"75001"}
{"title":"La Grande Maison de Bernard Magrez","address":"10 Rue Labottière","postCode":"33000"}
{"title":"L'Orangerie","address":"31 Avenue George-V","postCode":"75008"}
{"title":"Le Saint-Martin","address":"Avenue des Templiers","postCode":"06140"}
{"title":"Les Loges","address":"6 r. du Boeuf","postCode":"69005"}
{"title":"Quinsou","address":"33 r. de l'Abbé-Grégoire","postCode":"75006"}
{"title":"La Table by La Villa","address":"chemin de Notre-Dame-de-la-Serra","postCode":"20260"}
{"title":"Les Tables de Gaspard","address":"r. Principale","postCode":"05600"}
{"title":"St-James Paris","address":"43 av. Bugeaud","postCode":"75116"}
{"title":"Le Neuvième Art","address":"173 r. Cuvier","postCode":"69006"}
{"title":"Apicius","address":"20 r. d'Artois","postCode":"75008"}
{"title":"Henri et Joseph","address":"4 r. Léo-le-Bourgo","postCode":"56100"}
{"title":"Les Pyrénées","address":"19 pl. Ch.-de-Gaulle","postCode":"64220"}
{"title":"Gaya Rive Gauche par Pierre Gagnaire","address":"44 r. du Bac","postCode":"75007"}
{"title":"À Contre Sens","address":"8-10 r. des Croisiers","postCode":"14000"}
{"title":"Le Château de Sable","address":"38 r. de l'Europe","postCode":"29840"}
{"title":"Le Montgomerie","address":"356 rte de l'Altiport","postCode":"73120"}
{"title":"Gavroche","address":"4 r. Klein","postCode":"67000"}
{"title":"Intuition","address":"1 r. Alsace-Lorraine","postCode":"50000"}
{"title":"Stéphane Derbord","address":"10 Place du Président Wilson","postCode":"21000"}
{"title":"Michel Trama","address":"52 r. Royale","postCode":"47270"}
{"title":"Au 14 Février","address":"Le Plâtre-Durand","postCode":"71570"}
{"title":"Aux Terrasses","address":"18 av. du 23-Janvier","postCode":"71700"}
{"title":"Il Carpaccio","address":"37 avenue Hoche","postCode":"75008"}
{"title":"Le Quincangrogne","address":"7 Rue de l'Abreuvoir","postCode":"77400"}
{"title":"Le 1947","address":"Cheval Blanc Courchevel - Le Jardin Alpin","postCode":"73120"}
{"title":"L'Oustau de Baumanière","address":"Village des Baux-de-Provence","postCode":"13520"}
{"title":"Les Bacchanales","address":"247 avenue de Provence","postCode":"06140"}
{"title":"La Coopérative","address":"2A Route de Caladroy","postCode":"66720"}
{"title":"La Lorraine","address":"80 rue Principale","postCode":"57330"}
{"title":"La Maison dans le Parc","address":"3 r. Ste-Catherine","postCode":"54000"}
{"title":"J.-M. Pérochon","address":"63 avenue de la Grand'Roche","postCode":"85470"}
{"title":"Relais de la Poste","address":"21 rue du Gén. -de-Gaulle","postCode":"67610"}
{"title":"Le Pré - Xavier Beaudiment","address":"3 Route de la Baraque","postCode":"63830"}
{"title":"Auberge du Vieux Puits","address":"5 Avenue Saint-Victor","postCode":"11360"}
{"title":"Le Gourmet de Sèze","address":"125 Rue de Sèze","postCode":"69006"}
{"title":"Le Saint-Martin","address":"Avenue des Templiers","postCode":"06140"}
{"title":"Copenhague","address":"142 AVENUE DES CHAMPS ELYSEES","postCode":"75008"}
{"title":"114, Faubourg","address":"114 r. Fg St-Honoré","postCode":"75008"}
{"title":"Antoine","address":"10 av. de New-York","postCode":"75116"}
{"title":"L'Aparté","address":"21 Rue de l’Europe","postCode":"31850"}
{"title":"La Nouvelle Auberge","address":"9 route Nationale","postCode":"68230"}
{"title":"Au Crocodile","address":"10 rue de L'Outre","postCode":"67000"}
{"title":"Auberge du Cellier","address":"1 Rue de Sainte-Eugénie","postCode":"66720"}
{"title":"Alcyone","address":"1 Place Daviel","postCode":"13002"}
{"title":"Auberge à la Bonne Idée","address":"3 rue des Meuniers","postCode":"60350"}
{"title":"Flocons de Sel","address":"1775 rte du Leutaz","postCode":"74120"}
{"title":"Skab","address":"7 Rue de la République","postCode":"30000"}
{"title":"Ed.Em","address":"4 imp. Chenevottes","postCode":"21190"}
{"title":"Bruno","address":"2350 route des Arcs, Campagne Mariette","postCode":"83510"}
{"title":"Jin","address":"6 Rue de la Sourdière","postCode":"75001"}
{"title":"Auberge des Templiers","address":"D2007","postCode":"45290"}
{"title":"L'Olivier","address":"25 Route des Carles","postCode":"83990"}
{"title":"Les Terraillers","address":"11 Route Chemin-Neuf","postCode":"06410"}
{"title":"Aux Pesked","address":"59 Rue du Légué","postCode":"22000"}
{"title":"Le Pavé d'Auge","address":"D49","postCode":"14430"}
{"title":"La Maison de Bournissac","address":"montée d'Eyragues","postCode":"13550"}
{"title":"Le Champ des Lunes","address":"route de Roquefraîche","postCode":"84360"}
{"title":"Le Carré d'Alethius","address":"4 r. Paul-Bertois","postCode":"07800"}
{"title":"Les Fresques","address":"D18","postCode":"24240"}
{"title":"L'Épuisette","address":"158 Vallon-des-Auffes","postCode":"13007"}
{"title":"Fontevraud Le Restaurant","address":"38 rue St-Jean-de-l'Habit","postCode":"49590"}
{"title":"La Palmeraie","address":"81 Boulevard de Gigaro","postCode":"83420"}
{"title":"Auberge du Pont d'Acigné","address":"D392","postCode":"35530"}
{"title":"Lucas Carton","address":"9 pl. de la Madeleine","postCode":"75008"}
{"title":"La Table du Gourmet","address":"5 rue 1ère Armée","postCode":"68340"}
{"title":"Le Vieux Logis","address":"Le Bourg","postCode":"24510"}
{"title":"Auberge Frankenbourg","address":"13 r. Gén. de Gaulle","postCode":"67730"}
{"title":"Louison","address":"2750 route de la cride","postCode":"13610"}
{"title":"Le Brittany","address":"bd Ste-Barbe","postCode":"29681"}
{"title":"La Table de Manville","address":"Domaine de Manville - D27","postCode":"13520"}
{"title":"Domaine d'Auriac","address":"Route de Saint-Hilaire","postCode":"11000"}
{"title":"Cobéa","address":"11 r. Raymond Losserand","postCode":"75014"}
{"title":"Le Lido","address":"42 av. Napoléon-III","postCode":"20110"}
{"title":"Le Grand Bleu","address":"43 av. de la Gare","postCode":"24200"}
{"title":"La Table de l'Alpaga","address":"66 Allée des Marmousets","postCode":"74120"}
{"title":"Auberge des Saints Pères","address":"212 av. de Nonneville","postCode":"93600"}
{"title":"La Table de Nans","address":"corniche du Liouquet","postCode":"13600"}
{"title":"Les Bas-Rupts","address":"181 rte de la Bresse","postCode":"88400"}
{"title":"Sushi B","address":"5 r. Rameau","postCode":"75002"}
{"title":"Pierre Reboul","address":"260 r. Guillaume-du-Vair","postCode":"13546"}
{"title":"Quinsou","address":"33 r. de l'Abbé-Grégoire","postCode":"75006"}
{"title":"La Table de la Ferme","address":"Vallée de l'Ortolo","postCode":"20100"}
{"title":"La Table d'Hôtes - Le Quatrième Mur","address":"2 pl. de la Comédie","postCode":"33000"}
{"title":"Akrame","address":"7 r. Tronchet","postCode":"75008"}
{"title":"L'Auberge de Bagatelle","address":"489 av. Bollée","postCode":"72000"}
{"title":"La Merise","address":"7 r. d'Eschbach","postCode":"67580"}
{"title":"Comice","address":"31 av. de Versailles","postCode":"75016"}
{"title":"Le Chateaubriand","address":"129 av. Parmentier","postCode":"75011"}
{"title":"Ima","address":"20 bd de la Tour-d'Auvergne","postCode":"35000"}
{"title":"Ken Kawasaki","address":"15 r. Caulaincourt","postCode":"75018"}
{"title":"Pertinence","address":"29 r. de l'Exposition","postCode":"75007"}
{"title":"Le Grand Restaurant - Jean-François Piège","address":"7 r. d'Aguesseau","postCode":"75008"}
{"title":"Le Skiff Club","address":"1 av. Louis-Gaume","postCode":"33260"}
{"title":"Jérôme Feck","address":"19 pl. Mgr-Tissier","postCode":"51000"}
{"title":"Le Grand Cap","address":"chemin du Phare","postCode":"11370"}
{"title":"Restaurant H","address":"13 r. Jean-Beausire","postCode":"75004"}
{"title":"L'Émulsion","address":"57 rte de Lyon","postCode":"38080"}
{"title":"La Marine","address":"11 r. de Paris","postCode":"50270"}
{"title":"Montée","address":"9 r. Léopold-Robert","postCode":"75014"}
{"title":"Garance","address":"34 r. St-Dominique","postCode":"75007"}
{"title":"Intuition","address":"1 r. Alsace-Lorraine","postCode":"50000"}
{"title":"Alan Geaam","address":"19 Rue Lauriston","postCode":"75016"}
{"title":"Le Pavillon des Boulevards","address":"120 r. Croix-de-Seguey","postCode":"33000"}
{"title":"Restaurant du Château","address":"15 avenue des Reynats","postCode":"24650"}
{"title":"Azimut","address":"273 r. de la Madelon","postCode":"73120"}
{"title":"Jean Sulpice","address":"303 rte du Port","postCode":"74290"}
{"title":"Nakatani","address":"27 Rue Pierre Leroux","postCode":"75007"}
{"title":"Dyades au Domaine des Étangs","address":"Les Etangs","postCode":"16310"}
{"title":"L'Essentiel","address":"8 r. de la Clarté","postCode":"24000"}
{"title":"Domaine des Séquoias","address":"54 Vie-de-Boussieu","postCode":"38300"}
{"title":"Le Kléber","address":"6 r. A. -Dumont","postCode":"26400"}
{"title":"La Chaumière","address":"346 av. du Mar. -Juin","postCode":"39100"}
{"title":"Hervé Busset","address":"D901","postCode":"12320"}
{"title":"Pierre Gagnaire","address":"6 Rue Balzac","postCode":"75008"}
{"title":"L'Auberge Basque","address":"quartier Helbarron","postCode":"64310"}
{"title":"Le Meurice Alain Ducasse","address":"228 Rue de Rivoli","postCode":"75001"}
{"title":"Auberge de l'Ill","address":"2 rue de Collonges-au-Mont d'Or","postCode":"68970"}
{"title":"En Marge","address":"1204 rte de la Croix-Falgarde","postCode":"31320"}
{"title":"Château de Courban","address":"7 rue du Lavoir","postCode":"21520"}
{"title":"Auberge Grand'Maison","address":"1 r. Léon-le-Cerf","postCode":"22530"}
{"title":"Le Cerisier","address":"3 rue de la Gare","postCode":"62840"}
{"title":"Auguste","address":"54 r. Bourgogne","postCode":"75007"}
{"title":"Alain Llorca","address":"350 Route de St-Paul","postCode":"06480"}
{"title":"Rodolphe","address":"35 r. Percière","postCode":"76000"}
{"title":"Château Cordeillan-Bages","address":"route des chateaux","postCode":"33250"}
{"title":"La Réserve Rimbaud","address":"820 Avenue de Saint-Maur","postCode":"34000"}
{"title":"Château d'Adoménil","address":"","postCode":"54300"}
{"title":"La Chèvre d'Or","address":"r. du Barri","postCode":"06360"}
{"title":"William Frachot","address":"5 rue Michelet","postCode":"21000"}
{"title":"Hostellerie de Plaisance","address":"5 place du Clocher","postCode":"33330"}
{"title":"Hostellerie du Rosenmeer","address":"45 avenue de la Gare","postCode":"67560"}
{"title":"Helen","address":"3 r.Berryer","postCode":"75008"}
{"title":"Le Pavillon","address":"av. du Verger","postCode":"62520"}
{"title":"La Marine","address":"3 r. Marie-Lemonnier","postCode":"85330"}
{"title":"Les Terrasses de Lyon","address":"25, montée Saint BArthelémy","postCode":"69005"}
{"title":"Sylvestre","address":"79 rue St-Dominique","postCode":"75007"}
{"title":"Logis de la Cadène","address":"Place du Marche au Bois","postCode":"33330"}
{"title":"Jean Chauvel","address":"33 av. Général-Leclerc","postCode":"92100"}
{"title":"La Ferme de l'Hospital","address":"rte du golf","postCode":"74160"}
{"title":"Elsa","address":"Monte-Carlo Beach - Avenue Princesse Grace","postCode":"06190"}
{"title":"Le Pousse-Pied","address":"84 bd des Vendéens","postCode":"85360"}
{"title":"Le Strasbourg","address":"24 r. du Col. -Teyssier","postCode":"57230"}
{"title":"Le Clos St-Pierre","address":"pl. de la Mairie","postCode":"06650"}
{"title":"Loiseau des Vignes","address":"31 Rue Jean Francois Maufoux","postCode":"21200"}
{"title":"L'Orangerie","address":"31 Avenue George-V","postCode":"75008"}
{"title":"Le Pergolèse","address":"40, Rue Pergolèse","postCode":"75016"}
{"title":"Auberge du Vert Mont","address":"1318 r. du Mont-Noir","postCode":"59299"}
{"title":"Jean-Luc Tartarin","address":"Square Saint-Roch","postCode":"76600"}
{"title":"La Bonne Étape","address":"chemin du lac","postCode":"04160"}
{"title":"La Table des Merville","address":"3 place Richard","postCode":"31320"}
{"title":"Le Bistro des Saveurs","address":"35 Rue de Sélestat","postCode":"67210"}
{"title":"Le Carrousel","address":"14 rue du Pont de Morge","postCode":"63350"}
{"title":"Frédéric Doucet","address":"2 avenue de la Libération","postCode":"71120"}
{"title":"Le Chiquito","address":"3 r. de l'Oise, La Bonneville","postCode":"95540"}
{"title":"Alliance","address":"5 Rue de Poissy","postCode":"75005"}
{"title":"L'Escarbille","address":"8 Rue de Vélizy","postCode":"92190"}
{"title":"L'Ambroisie","address":"9 Place des Vosges","postCode":"75004"}
{"title":"Chez Michèle","address":"57 rue Principale","postCode":"57810"}
{"title":"Divellec","address":"18 r. Fabert","postCode":"75007"}
{"title":"Initial","address":"24 Rue Saint-Manvieu","postCode":"14000"}
{"title":"Maison Kieny","address":"7 Rue du Général de Gaulle","postCode":"68400"}
{"title":"Garopapilles","address":"62 r. Abbé-de-L'Epée","postCode":"33000"}
{"title":"U Santa Marina","address":"Marina di Santa Giulia","postCode":"20137"}
{"title":"La Table by La Villa","address":"chemin de Notre-Dame-de-la-Serra","postCode":"20260"}
{"title":"Le Marcq","address":"944 av. de la République","postCode":"59700"}
{"title":"Auberge du Paradis","address":"Le Plâtre-Durand","postCode":"71570"}
{"title":"Val d'Auge","address":"805 av. du Gén.-de-Gaulle","postCode":"59910"}
{"title":"L'Alchémille","address":"53 rte de Lapoutroie","postCode":"68240"}
{"title":"Haut Bonheur de la Table","address":"18 Grand-Place","postCode":"59670"}
{"title":"L'Éveil des Sens","address":"429 bd Paul-Lintier","postCode":"53100"}
{"title":"Table - Bruno Verjus","address":"3 r. de Prague","postCode":"75012"}
{"title":"À Contre Sens","address":"8-10 r. des Croisiers","postCode":"14000"}
{"title":"Le Prieuré","address":"7 pl. du Chapitre","postCode":"30400"}
{"title":"Château de Vauchoux","address":"","postCode":"70170"}
{"title":"Racine","address":"6 pl. Godinot","postCode":"51100"}
{"title":"La Robe","address":"3 pl. Reveillère-Lepeaux","postCode":"85600"}
{"title":"ES","address":"91 r. de Grenelle","postCode":"75007"}
{"title":"Le Moulin des Quatre Saisons","address":"r. Gallieni","postCode":"72200"}
{"title":"Palégrié","address":"Les Ritons","postCode":"38250"}
{"title":"La Roya","address":"plage de la Roya","postCode":"20217"}
{"title":"Pèir","address":"r. de la Combe","postCode":"84220"}
{"title":"Lou Cigalon-Maison Martin","address":"6 bd Carnot","postCode":"06560"}
{"title":"La Fourchette du Printemps","address":"30 r. du Printemps","postCode":"75017"}
{"title":"Château Blanchard","address":"36 rte de St-Galmier","postCode":"42140"}
{"title":"Le Sérac","address":"22 r. de la Comtesse","postCode":"74170"}
{"title":"Auberge Le Prieuré","address":"4 Grand'Rue","postCode":"47310"}
{"title":"Le Pêché Gourmand","address":"2 rte de Gap","postCode":"05100"}
{"title":"La Ville Blanche","address":"La Ville Blanche","postCode":"22300"}
{"title":"La Promenade","address":"2 promenade Jean-Jaurès","postCode":"31590"}
{"title":"Le Village","address":"3 Grande-Rue","postCode":"78160"}
{"title":"Le Favre d'Anne","address":"21 bd du Mar.-Foch","postCode":"49000"}
{"title":"La Coquerie","address":"1 chemin du Cimetière-Marin","postCode":"34200"}
{"title":"La Marande","address":"lieu-dit Mirande","postCode":"71260"}
{"title":"Jérôme Brochot","address":"Place Beaubernard","postCode":"71300"}
{"title":"L'Auberge des Glazicks","address":"7 rue de la Plage","postCode":"29550"}
{"title":"La Passagère","address":"33 boulevard E. -Baudoin","postCode":"06160"}
{"title":"Le Parc Les Crayères","address":"64 Boulevard Henry Vasnier","postCode":"51100"}
{"title":"La Gloire","address":"74 av. du Gén.-de-Gaulle","postCode":"45200"}
{"title":"1912","address":"bd de la Cahotte","postCode":"14360"}
{"title":"Table des Frères Ibarboure","address":"chemin Ttalienea","postCode":"64210"}
{"title":"Miraflores","address":"60 r. Garibaldi","postCode":"69006"}
{"title":"Maison Prévôt","address":"353 av. de Verdun","postCode":"84300"}
{"title":"Le Vivarais","address":"5 avenue Expilly","postCode":"07600"}
{"title":"Benoit","address":"20 Rue St-Martin","postCode":"75004"}
{"title":"Pic","address":"285 avenue Victor Hugo","postCode":"26000"}
{"title":"Le St-Placide","address":"6 place du poncel","postCode":"35400"}
{"title":"La Table d'Eugène","address":"18 r. Eugène-Sue","postCode":"75018"}
{"title":"La Rastègue","address":"48 bd du Levant","postCode":"83230"}
{"title":"La Table de Chaintré","address":"72 pl. du Luminaire","postCode":"71570"}
{"title":"Ze Kitchen Galerie","address":"4 r. des Grands-Augustins","postCode":"75006"}
{"title":"Les Trois Rochers","address":"16 rue du Phare","postCode":"29120"}
{"title":"Le France","address":"8 place Cupillard","postCode":"25130"}
{"title":"La Table des Blot - Auberge du Château","address":"1 Grande-Rue","postCode":"78720"}
{"title":"Roscanvec","address":"17 r. des Halles","postCode":"56000"}
{"title":"Brikéténia","address":"142 r. de l'Église","postCode":"64210"}
{"title":"Avel Vor","address":"25 r. de Locmalo","postCode":"56290"}
{"title":"Girardin","address":"19 Rue des Têtes","postCode":"68000"}
{"title":"Le Bon Accueil","address":"32 Grande-Rue","postCode":"25160"}
{"title":"Terre-Mer","address":"16 r. du Jeu-de-Paume","postCode":"56400"}
{"title":"Michel Chabran - La Grande Table","address":"29 Avenue du Quarante-Cinquième Parallèle","postCode":"26600"}
{"title":"Auberge St-Jean","address":"8 r. du Pont","postCode":"33420"}
{"title":"Le Foch","address":"37 bd Foch","postCode":"51100"}
{"title":"Auberge du Cheval Blanc","address":"4 Route de Wissembourg","postCode":"67510"}
{"title":"Auberge du Dun","address":"3 rte de Dieppe","postCode":"76740"}
{"title":"L'Aquarelle","address":"71 A rte du Montil","postCode":"17920"}
{"title":"1217","address":"le bourg","postCode":"69620"}
{"title":"Le Clos des Sens","address":"13 r. J. -Mermoz","postCode":"74940"}
